storeNumber,projectDate,projectTime,manager,duration,streetAddress,city,state,zipCode,totalDoors,vaultDoors,vaultShelves,vaultRun,reachInDoors,reachInFootage,reachInFootage2,uprights,phoneNumber,businessUnit,retailer,jobType,training,trainer,status,projectComments,,,,
283,2024-01-08,AM,Alex Leon,1,1990 E. I-30,Rockwall,TX,75075,,,,,,,,,(972) 722-3178,TX - Texas,Loves,Beverage,,,,,,,,
294,2024-01-09,AM,Alex Leon,1,8800 S. Polk Street,Dallas,TX,75232,,,,,,,,,(972) 224-5970,TX - Texas,Loves,Beverage,,,,,,,,
331,2024-01-10,AM,Alex Leon,1,2500 S. I-45,Hutchins,TX,75141,,,,,,,,,(972) 225-3560,TX - Texas,Loves,Beverage,,,,,,,,
216,2024-01-11,AM,Alex Leon,1,1501 W Highway 287,Midlothian,TX,76065,,,,,,,,,(972) 775-2820,TX - Texas,Loves,Beverage,,,,,,,,
609,2024-01-12,AM,Alex Leon,1,6421 N I-35,Denton,TX,76207,,,,,,,,,(940) 320-1457,TX - Texas,Loves,Beverage,,,,,,,,
299,2024-01-15,AM,Alex Leon,1,1701 US Highway 75,Anna,TX,75409,,,,,,,,,(972) 924-3683,TX - Texas,Loves,Beverage,,,,,,,,
721,2024-01-16,AM,Alex Leon,1,6550 S Interstate 45 Service Rd,Alma,TX,75119,,,,,,,,,(972) 875-8103,TX - Texas,Loves,Beverage,,,,,,,,
287,2024-01-17,AM,Alex Leon,1,1221 S. Oak St,Van,TX,75790,,,,,,,,,(903) 502-6008,TX - Texas,Loves,Beverage,,,,,,,,
651,2024-01-18,AM,Alex Leon,1,1188 S. Oak St.,Van,TX,75790,,,,,,,,,(903) 963-1122,TX - Texas,Loves,Beverage,,,,,,,,
815,2024-01-19,AM,Alex Leon,1,12577 CR 3101,Winona,TX,75792,,,,,,,,,(903) 618-4002,TX - Texas,Loves,Beverage,,,,,,,,
2709868,2024-01-30,AM,Alex Leon,2,3600 W. 38th Ave,Denver,CO,80211,9,55,,,,,,0,,RM - Rocky Mountain,Circle K,Flex Roller,,,SWAPPED FROM CATHERINE SCHEDULE,,,,,
2740661,2024-02-01,AM,Alex Leon,2,4498 Sheridan Blvd,Denver,CO,80212,9,61,,,,,,0,,RM - Rocky Mountain,Circle K,Flex Roller,,,SWAPPED FROM CATHERINE SCHEDULE,,,,,
2709841,2024-02-05,AM,Alex Leon,2,1190 West Baptist Road,Monument,CO,80921,11,74,,4/5/2/0,,,,14,,RM - Rocky Mountain,Circle K,Flex Roller,,,,,,,,
2709881,2024-02-07,AM,Alex Leon,2,7805 N. Academy,Colorado Springs,CO,80920,11,73,,"5,4,2",,,,11,,RM - Rocky Mountain,Circle K,Flex Roller,,,,,,,,
2709206,2024-02-19,AM,Alex Leon,1,12281 Eastlake Blvd,El Paso,TX,79938,13,13,,,,,,,915-860-7561,RM - Rocky Mountain,Circle K,Center Store,,,,,,,,
2709703,2024-02-20,AM,Alex Leon,1,1420 Joe Battle Blvd,El Paso,TX,79928,13,13,,,,,,,915-613-0350,RM - Rocky Mountain,Circle K,Center Store,,,,,,,,
2741260,2024-02-21,AM,Alex Leon,1,3898 Doniphan Dr,El Paso,TX,79922,13,13,,,,,,,915-833-8852,RM - Rocky Mountain,Circle K,Center Store,,,,,,,,
2741270,2024-02-22,AM,Alex Leon,1,11302 Montana Ave,El Paso,TX,79936,13,13,,,,,,,915-857-7538,RM - Rocky Mountain,Circle K,Center Store,,,,,,,,
2741372,2024-02-23,AM,Alex Leon,1,10001 Dyer St,El Paso,TX,79924,13,13,,,,,,,915-751-7423,RM - Rocky Mountain,Circle K,Center Store,,,,,,,,
2741272,2024-02-26,PM,Alex Leon,0.5,10790 N Loop Dr,Socorro,TX,79927,4,4,,,,,,,915-851-0616,RM - Rocky Mountain,Circle K,Center Store,,,,,,,,
2741275,2024-02-26,AM,Alex Leon,0.5,11488 Socorro Rd,Socorro,TX,79927,5,5,,,6,,,,915-855-2409,RM - Rocky Mountain,Circle K,Center Store,,,,,,,,
2706023,2024-02-27,AM,Alex Leon,0.5,10491 North Loop,Socorro,TX,79927,7,7,,,,,,,915-790-0402,RM - Rocky Mountain,Circle K,Center Store,,,,,,,,
2706333,2024-02-27,PM,Alex Leon,0.5,700 Americas Ave,El Paso,TX,79927,10,10,,,,,,,915-790-0122,RM - Rocky Mountain,Circle K,Center Store,,,,,,,,
2708743,2024-02-28,PM,Alex Leon,0.5,8855 N Loop,El Paso,TX,79907,8,8,,,,,,,915-859-3714,RM - Rocky Mountain,Circle K,Center Store,,,,,,,,
2741299,2024-02-28,AM,Alex Leon,0.5,1135 Joe Battle Blvd,El Paso,TX,79936,8,8,,,,,,,915-872-1924,RM - Rocky Mountain,Circle K,Center Store,,,,,,,,
2705305,2024-02-29,PM,Alex Leon,0.5,1471 N Zaragosa,El Paso,TX,79936,5,5,,,,,,,915-857-9486,RM - Rocky Mountain,Circle K,Center Store,,,,,,,,
2741257,2024-02-29,AM,Alex Leon,0.5,1239 N Zaragosa Rd,El Paso,TX,79907,7,7,,,6,,,,915-858-2745,RM - Rocky Mountain,Circle K,Center Store,,,,,,,,
2701506,2024-03-01,PM,Alex Leon,0.5,1500 George Dieter,El Paso,TX,79936,8,8,,,,,,,915-857-3226,RM - Rocky Mountain,Circle K,Center Store,,,,,,,,
2706307,2024-03-01,AM,Alex Leon,0.5,1600 Zaragosa Rd,El Paso,TX,79936,7,7,,,,,,,915-857-5224,RM - Rocky Mountain,Circle K,Center Store,,,,,,,,
2741293,2024-03-04,AM,Alex Leon,1,1316 S Main St,Lordsburg,NM,88045,7,7,,,,,,,575-542-3542,RM - Rocky Mountain,Circle K,Center Store,,,,,,,,
2709668,2024-03-05,AM,Alex Leon,0.5,1009 W Pine St,Deming,NM,88030,10,10,,,,,,,575-546-5496,RM - Rocky Mountain,Circle K,Center Store,,,,,,,,
2741292,2024-03-05,PM,Alex Leon,0.5,1018 W Pine St,Deming,NM,88030,4,4,,,,,,,575-544-2802,RM - Rocky Mountain,Circle K,Center Store,,,,,,,,
2709669,2024-03-06,AM,Alex Leon,1,200 S Columbus,Deming,NM,88030,13,13,,,,,,,575 -548-5388,RM - Rocky Mountain,Circle K,Center Store,,,,,,,,
2706007,2024-03-07,PM,Alex Leon,0.5,2680 W Picacho Ave,Las Cruces,NM,88007,9,9,,,,,,,575-527-3496,RM - Rocky Mountain,Circle K,Center Store,,,,,,,,
2741286,2024-03-07,AM,Alex Leon,0.5,3825 Columbus Rd Se,Deming,NM,88030,7,7,,,,,,,575-546-0590,RM - Rocky Mountain,Circle K,Center Store,,,,,,,,
2704397,2024-03-08,PM,Alex Leon,0.5,3925 S Main St,Las Cruces,NM,88005,,,,,,,,,,RM - Rocky Mountain,Circle K,Center Store,,,,,,,,
2709680,2024-03-08,AM,Alex Leon,0.5,1250 N Valley Dr,Las Cruces,NM,88005,10,10,,,,,,,575-526-6369,RM - Rocky Mountain,Circle K,Center Store,,,,,,,,
2706015,2024-03-11,PM,Alex Leon,0.5,12680 Montana,El Paso,TX,79938,8,8,,,,,,,915-921-7522,RM - Rocky Mountain,Circle K,Center Store,,,,,,,,
2742777,2024-03-11,AM,Alex Leon,0.5,12681 Montana,El Paso,TX,79938,10,10,,,,,,,915-921-6638,RM - Rocky Mountain,Circle K,Center Store,,,,,,,,
2709217,2024-03-12,PM,Alex Leon,0.5,3100 Zaragoza Rd,El Paso,TX,79938,12,12,,,,,,,915-455-1204,RM - Rocky Mountain,Circle K,Center Store,,,,,,,,
2741255,2024-03-12,AM,Alex Leon,0.5,12190 Montwood Dr,El Paso,TX,79936,4,4,,,,,,,915-857-5224,RM - Rocky Mountain,Circle K,Center Store,,,,,,,,
2703288,2024-03-13,AM,Alex Leon,0.5,2297 N Zaragosa,El Paso,TX,79938,8,8,,,,,,,915-855 1455,RM - Rocky Mountain,Circle K,Center Store,,,,,,,,
2741253,2024-03-13,PM,Alex Leon,0.5,2210 Joe Battle Blvd,El Paso,TX,79938,6,6,,,,12,,,915-849-8815,RM - Rocky Mountain,Circle K,Center Store,,,,,,,,
2705312,2024-03-14,PM,Alex Leon,0.5,11701 Montwood,El Paso,TX,79936,9,9,,,,4,,,915-857-9687,RM - Rocky Mountain,Circle K,Center Store,,,,,,,,
2741531,2024-03-14,AM,Alex Leon,0.5,3291 N Zaragoza,El Paso,TX,79938,10,10,,,,,,,915-855-6244,RM - Rocky Mountain,Circle K,Center Store,,,,,,,,
2706021,2024-03-15,PM,Alex Leon,0.5,11685 Pebble Hills,El Paso,TX,79936,9,9,,,,,,,915-921-1518,RM - Rocky Mountain,Circle K,Center Store,,,,,,,,
2706309,2024-03-15,AM,Alex Leon,0.5,11390 Montwood,El Paso,TX,79936,9,9,,,,,,,915-856-7005,RM - Rocky Mountain,Circle K,Center Store,,,,,,,,
2700213,2024-03-18,AM,Alex Leon,0.5,11096 Pebble Hills,El Paso,TX,79936,7,7,,,,6,,,915-590-7424,RM - Rocky Mountain,Circle K,Center Store,,,,,,,,
2700890,2024-03-18,PM,Alex Leon,0.5,11101 Montwood,El Paso,TX,79936,9,9,,,,,,,915-598-1478,RM - Rocky Mountain,Circle K,Center Store,,,,,,,,
2706454,2024-03-19,PM,Alex Leon,0.5,1400 Lee Trevino,El Paso,TX,79936,8,8,,,,,,,915-592-8211,RM - Rocky Mountain,Circle K,Center Store,,,,,,,,
2708775,2024-03-19,AM,Alex Leon,0.5,1520 Lee Trevino,El Paso,TX,79936,8,8,,,,,,,915-598-4512,RM - Rocky Mountain,Circle K,Center Store,,,,,,,,
2700020,2024-03-20,AM,Alex Leon,0.5,10744 Vista Del Sol,El Paso,TX,79925,7,4,,,3,,,,915-592-1630,RM - Rocky Mountain,Circle K,Center Store,,,,,,,,
2741374,2024-03-20,PM,Alex Leon,0.5,7960 Gateway E,El Paso,TX,79907,4,4,,,,6,,,915-590-2956,RM - Rocky Mountain,Circle K,Center Store,,,,,,,,
2706112,2024-03-21,AM,Alex Leon,0.5,7800 Gateway East,El Paso,TX,79915,10,10,,,,,,,915-629-8703,RM - Rocky Mountain,Circle K,Center Store,,,,,,,,
2740863,2024-03-21,PM,Alex Leon,0.5,9485 Viscount Blvd,El Paso,TX,79925,5,5,,,,,,,915-595-0887,RM - Rocky Mountain,Circle K,Center Store,,,,,,,,
2703289,2024-03-22,PM,Alex Leon,0.5,2050 N Yarbrough Drive,El Paso,TX,79925,8,8,,,,,,,915-594-3360,RM - Rocky Mountain,Circle K,Center Store,,,,,,,,
2741356,2024-03-22,AM,Alex Leon,0.5,2101 Wedgewood Dr,El Paso,TX,79925,6,6,,,,6,,,915-592-8814,RM - Rocky Mountain,Circle K,Center Store,,,,,,,,
410,2024-03-25,AM,Alex Leon,1,2120 South Ave.,Corning,CA,96021,,,,,,,,,,WC - West Coast,Loves,Beverage,,,,,,,,
652,2024-03-26,AM,Alex Leon,1,100 Marguerite Street,Williams,CA,95987,,,,,,,,,,WC - West Coast,Loves,Beverage,,,,,,,,
538,2024-03-27,AM,Alex Leon,1,15250 North Thornton Rd,Lodi,CA,95242,,,,,,,,,,WC - West Coast,Loves,Beverage,,,,,,,,
223,2024-03-28,AM,Alex Leon,1,1553 Colony Rd.,Ripon,CA,95366,,,,,,,,,,WC - West Coast,Loves,Beverage,,,,,,,,
807,2024-04-01,AM,Alex Leon,1,55 S Rogers Rd,Patterson,CA,95363,,,,,,,,,,WC - West Coast,Loves,Beverage,,,,,,,,
898,2024-04-03,AM,Alex Leon,1,1264 De La Torre,Salinas,CA,93905,,,,,,,,,,WC - West Coast,Loves,Beverage,,,,,,,,
441,2024-04-05,AM,Alex Leon,1,29025 West Plaza Dr.,Santa Nella,CA,95322,,,,,,,,,,WC - West Coast,Loves,Beverage,,,,,,,,
736,2024-04-08,AM,Alex Leon,1,3174 Avenue 17,Madera,CA,93638,,,,,,,,,,WC - West Coast,Loves,Beverage,,,,,,,,
382,2024-04-09,AM,Alex Leon,1,2700 S. Blackstone St.,Tulare,CA,93274,,,,,,,,,,WC - West Coast,Loves,Beverage,,,,,,,,
230,2024-04-10,AM,Alex Leon,1,21948 Highway 46,Lost Hills,CA,93249,,,,,,,,,,WC - West Coast,Loves,Beverage,,,EMPTY VISI COOLERS,,,,remove products from the VISI coolers for donation.,
2701341,2024-04-15,AM,Alex Leon,0.5,26319 Us Hwy 70,Ruidoso,NM,88346,9,9,,,,,,,575-378-8409,RM - Rocky Mountain,Circle K,Center Store,,,,,,,,
2741285,2024-04-15,PM,Alex Leon,0.5,1616 10th St,Alamogordo,NM,88310,7,7,,,,,,,575-437-9412,RM - Rocky Mountain,Circle K,Center Store,,,,,,,,
2709681,2024-04-16,PM,Alex Leon,0.5,2001 Battan Memorial,Las Cruces,NM,88012,10,10,,,,,,,575-382-6995,RM - Rocky Mountain,Circle K,Center Store,,,,,,,,
2741296,2024-04-16,AM,Alex Leon,0.5,657 S White Sands Blvd,Alamogordo,NM,88310,7,7,,,,,,,575-434-6224,RM - Rocky Mountain,Circle K,Center Store,,,,,,,,
2709682,2024-04-17,AM,Alex Leon,1,4675 Sonoma Ranch,Las Cruces,NM,88011,16,16,,,,,,,575-382-6859,RM - Rocky Mountain,Circle K,Center Store,,,,,,,,
2709673,2024-04-18,AM,Alex Leon,0.5,3811 E Lohman Ave,Las Cruces,NM,88011,8,8,,,,,,,575-522-5121,RM - Rocky Mountain,Circle K,Center Store,,,,,,,,
2709677,2024-04-18,PM,Alex Leon,0.5,855 S Walnut St,Las Cruces,NM,88001,10,10,,,,,,,575-523-0191,RM - Rocky Mountain,Circle K,Center Store,,,,,,,,
2709665,2024-04-19,AM,Alex Leon,0.5,1501 E Amador Ave,Las Cruces,NM,88001,7,7,,,,,,,575-523-0718,RM - Rocky Mountain,Circle K,Center Store,,,,,,,,
2741289,2024-04-19,PM,Alex Leon,0.5,1401 E Lohman Ave,Las Cruces,NM,88001,9,9,,,,8,,,575-525-9847,RM - Rocky Mountain,Circle K,Center Store,,,,,,,,
2700006,2024-04-22,AM,Alex Leon,0.5,5040 Paisano,El Paso,TX,79905,6,6,,,,8,,,915-775-0645,RM - Rocky Mountain,Circle K,Center Store,,,,,,,,
2741269,2024-04-22,PM,Alex Leon,0.5,4421 Montana Ave,El Paso,TX,79903,4,4,,,,,,,915-565-4820,RM - Rocky Mountain,Circle K,Center Store,,,,,,,,
2701418,2024-04-23,AM,Alex Leon,0.5,"3910 ""A"" Dyer",El Paso,TX,79930,9,9,,,,,,,915-565-2453,RM - Rocky Mountain,Circle K,Center Store,,,,,,,,
2708516,2024-04-23,PM,Alex Leon,0.5,4101 Piedras,El Paso,TX,79930,8,8,,,,8,,,915-565-0479,RM - Rocky Mountain,Circle K,Center Store,,,,,,,,
2741259,2024-04-24,AM,Alex Leon,0.5,1915 Montana Ave,El Paso,TX,79902,4,4,,,,,,,915-542-3184,RM - Rocky Mountain,Circle K,Center Store,,,,,,,,
2741365,2024-04-24,PM,Alex Leon,0.5,300 S Saint Vrain,El Paso,TX,79901,5,5,,,,,,,915-544-0675,RM - Rocky Mountain,Circle K,Center Store,,,,,,,,
2701227,2024-04-25,AM,Alex Leon,0.5,1400 W Yandell,El Paso,TX,79902,6,6,,,,6,,,915-533-2452,RM - Rocky Mountain,Circle K,Center Store,,,,,,,,
2706130,2024-04-25,PM,Alex Leon,0.5,2200 N Mesa,El Paso,TX,79902,8,8,,,,,,,915-532-6257,RM - Rocky Mountain,Circle K,Center Store,,,,,,,,
2741350,2024-04-26,PM,Alex Leon,0.5,660 Sunland Park Dr,El Paso,TX,79912,7,7,,,,,,,915-581-5890,RM - Rocky Mountain,Circle K,Center Store,,,,,,,,
2741359,2024-04-26,AM,Alex Leon,0.5,4201 N Mesa St,El Paso,TX,79902,6,6,,,,8,,,915-545-2726,RM - Rocky Mountain,Circle K,Center Store,,,,,,,,
2706022,2024-04-29,PM,Alex Leon,0.5,900 E Redd Road,El Paso,TX,79912,9,9,,,,,,,915-833-1481,RM - Rocky Mountain,Circle K,Center Store,,,,,,,,
2741261,2024-04-29,AM,Alex Leon,0.5,7660 N Mesa St,El Paso,TX,79912,6,6,,,,4,,,915-584-9687,RM - Rocky Mountain,Circle K,Center Store,,,,,,,,
2701190,2024-04-30,PM,Alex Leon,0.5,6996 Escondido,El Paso,TX,79912,7,7,,,,,,,915-587-0981,RM - Rocky Mountain,Circle K,Center Store,,,,,,,,
2701534,2024-04-30,AM,Alex Leon,0.5,650 N Resler,El Paso,TX,79912,8,8,,,,8,,,915-833-7730,RM - Rocky Mountain,Circle K,Center Store,,,,,,,,
2706098,2024-05-01,AM,Alex Leon,1,6200 N Mesa,El Paso,TX,79912,9,9,,,,,,,915-585-0790,RM - Rocky Mountain,Circle K,Center Store,,,,,,,,
2741749,2024-05-02,AM,Alex Leon,1,9121 Dyer St,El Paso,TX,79924,,,,,,,,,,RM - Rocky Mountain,Circle K,Center Store,,,,,,,,
2741120,2024-01-04,AM,Catherine Wheeler-Mushlin,2,385 E Bromley Lane,Brighton,CO,80601,11,,74,4/4/3/0,,,,14,,RM - Rocky Mountain,Circle K,Flex Roller,,,Completed,,,,,
2741125,2024-01-08,AM,Catherine Wheeler-Mushlin,2,4780 E Bromley Ln,Brighton,CO,80601,9,,62,,,,,0,,RM - Rocky Mountain,Circle K,Flex Roller,,,Completed,,,,,
2709839,2024-01-10,AM,Catherine Wheeler-Mushlin,2,12051 North Huron Street,Westminster,CO,80234,11,,74,"4,5,2",,,,15,,RM - Rocky Mountain,Circle K,Flex Roller,,,Completed,,,,,
2709862,2024-01-16,AM,Catherine Wheeler-Mushlin,2,290 W. 104th Ave,Northglenn,CO,80234,13,,87,"3,3,4,2,1",,,,18,,RM - Rocky Mountain,Circle K,Flex Roller,,,Completed,,,,,
2740648,2024-01-17,AM,Catherine Wheeler-Mushlin,2,8290 N Washington St,Thornton,CO,80229,9,,61,,,,,0,,RM - Rocky Mountain,Circle K,Flex Roller,,,Completed,,,,,
2741126,2024-01-22,AM,Catherine Wheeler-Mushlin,2,13185 S. Parker Rd,Parker,CO,80134,9,,61,,,,,0,,RM - Rocky Mountain,Circle K,Flex Roller,,,Completed,Completed in 1 day,,,,
2709901,2024-01-24,AM,Catherine Wheeler-Mushlin,1.5,246 Founders Parkway,Castle Rock,CO,80104,12,,81,"3,5,4",,,,15,,RM - Rocky Mountain,Circle K,Flex Roller,,,,Started 1-23-24,,,,
2740666,2024-01-25,PM,Catherine Wheeler-Mushlin,1.5,94 Wolfensberger Rd,Castle Rock,CO,80109,12,,78,,,,,0,,RM - Rocky Mountain,Circle K,Flex Roller,,,,,,,,
2744074,2024-01-29,AM,Catherine Wheeler-Mushlin,2,5601 Quebec St,Commerce City,CO,80022,14,,93,4/4/4/2,,,,0,,RM - Rocky Mountain,Circle K,Flex Roller,,,,,,,,
2709888,2024-01-31,AM,Catherine Wheeler-Mushlin,2,15065 W. Colfax Ave,Lakewood,CO,80401,9,,58,"1,4,4",,,,12,,RM - Rocky Mountain,Circle K,Flex Roller,,,,,,,,
2709884,2024-02-02,AM,Catherine Wheeler-Mushlin,1,9207 W. Jewell Avenue,Lakewood,CO,80232,8,,54,,,,,0,,RM - Rocky Mountain,Circle K,Flex Roller,,,,,,,,
2709899,2024-02-05,AM,Catherine Wheeler-Mushlin,1,2290 S. Havana,Aurora,CO,80014,9,,63,,,,,0,,RM - Rocky Mountain,Circle K,Flex Roller,,,,,,,,
2709852,2024-02-06,AM,Catherine Wheeler-Mushlin,2,15291 E. Hampden Ave.,Aurora,CO,80014,12,,81,"2,1,5,4",,,,17,,RM - Rocky Mountain,Circle K,Flex Roller,,,,,,,,
2709872,2024-02-08,AM,Catherine Wheeler-Mushlin,2,4200 S. Parker Road,Aurora,CO,80014,15,,101,"3,3,5,4",,,,21,,RM - Rocky Mountain,Circle K,Flex Roller,,,,,,,,
2709879,2024-02-13,AM,Catherine Wheeler-Mushlin,2,7550 S. University Blvd,Centennial,CO,80122,10,,62,"1,5,4",,,,13,,RM - Rocky Mountain,Circle K,Flex Roller,,,,,,,,
2709886,2024-02-15,AM,Catherine Wheeler-Mushlin,2,9275 South Broadway,Highlands Ranch,CO,80129,12,,80,"1,2,5,4",,,,17,,RM - Rocky Mountain,Circle K,Flex Roller,,,,,,,,
2744089,2024-02-19,AM,Catherine Wheeler-Mushlin,1,330 S Kalamath St,Denver,CO,80223,5,5,,,,,,,303-777-0611,RM - Rocky Mountain,Circle K,Center Store,,,,,,,,
2703290,2024-02-20,AM,Catherine Wheeler-Mushlin,1,411 W Florida Ave,Denver,CO,80223,10,10,,,,,,,303-282-6561,RM - Rocky Mountain,Circle K,Center Store,,,,,,,,
2709898,2024-02-21,AM,Catherine Wheeler-Mushlin,1,2200 W Evans,Englewood,CO,80110,6,6,,,,,,,303-922-4949,RM - Rocky Mountain,Circle K,Center Store,,,,,,,,
2740691,2024-02-22,AM,Catherine Wheeler-Mushlin,1,2010 W Evans Ave,Englewood,CO,80110,7,7,,,,,,,303-934-6665,RM - Rocky Mountain,Circle K,Center Store,,,,,,,,
2744079,2024-02-23,AM,Catherine Wheeler-Mushlin,1,2210 S Colorado Blvd,Denver,CO,80222,5,5,,,,,,,303-756-8611,RM - Rocky Mountain,Circle K,Center Store,,,,,,,,
2709869,2024-02-26,AM,Catherine Wheeler-Mushlin,0.5,3694 W Bowles Ave,Littleton,CO,80123,9,9,,,,,,,303-798-5233,RM - Rocky Mountain,Circle K,Center Store,,,,,,,,
2709876,2024-02-26,PM,Catherine Wheeler-Mushlin,0.5,5095 S Federal Blvd,Englewood,CO,80110,6,6,,,,,,,303-795-9482,RM - Rocky Mountain,Circle K,Center Store,,,,,,,,
2744098,2024-02-27,AM,Catherine Wheeler-Mushlin,0.5,4596 S Broadway,Englewood,CO,80110,7,4,,,3,,,,303-789-0649,RM - Rocky Mountain,Circle K,Center Store,,,,,,,,
2744123,2024-02-27,PM,Catherine Wheeler-Mushlin,0.5,1599 W Littleton Blvd,Littleton,CO,80120,7,7,,,,,,,303-730-8350,RM - Rocky Mountain,Circle K,Center Store,,,,,,,,
2741109,2024-02-28,AM,Catherine Wheeler-Mushlin,0.5,6857 S Broadway,Littleton,CO,80122,11,6,,,5,,,,303-798-8451,RM - Rocky Mountain,Circle K,Center Store,,,,,,,,
2741159,2024-02-28,PM,Catherine Wheeler-Mushlin,0.5,34 Centennial Blvd,Highlands Ranch,CO,80126,9,3,,,6,,,,303-683-9489,RM - Rocky Mountain,Circle K,Center Store,,,,,,,,
2741161,2024-02-29,AM,Catherine Wheeler-Mushlin,0.5,8071 Blakeland Dr,Littleton,CO,80125,9,3,,,6,,,,303-683-8897,RM - Rocky Mountain,Circle K,Center Store,,,,,,,,
2744118,2024-03-01,AM,Catherine Wheeler-Mushlin,0.5,2020 E County Line Rd,Highlands Ranch,CO,80126,7,4,,,3,,,,303-730-0948,RM - Rocky Mountain,Circle K,Center Store,,,,,,,,
30,2024-03-04,AM,Catherine Wheeler-Mushlin,1,1537 Grande Ave.,Monte Vista,CO,81144,7,,,,,,,,,RM - Rocky Mountain,Loves,Beverage,,,,COMPLETE LOVES BOF SURVEY,,,,
7,2024-03-05,AM,Catherine Wheeler-Mushlin,1,108 S 12th St,Gunnison,CO,81230,11,,,,,,,,,RM - Rocky Mountain,Loves,Beverage,,,,,,,,
115,2024-03-06,AM,Catherine Wheeler-Mushlin,1,115 Harrison Ave,Buena Vista,CO,81211,9,,,,,,,,,RM - Rocky Mountain,Loves,Beverage,,,,,,,,
357,2024-03-07,AM,Catherine Wheeler-Mushlin,1,5505 Travel Plaza Drive,Fountain,CO,80817,9,,,,,,,,,RM - Rocky Mountain,Loves,Beverage,,,,,,,,
2709837,2024-03-11,AM,Catherine Wheeler-Mushlin,0.5,5885 Constitution Avenue,Colorado Springs,CO,80915,8,8,,,,,,,719-638-6823,RM - Rocky Mountain,Circle K,Center Store,,,,,,,,
2709871,2024-03-11,PM,Catherine Wheeler-Mushlin,0.5,3805 Maizeland,Colorado Springs,CO,80909,6,6,,,,,,,719-574-9519,RM - Rocky Mountain,Circle K,Center Store,,,,,,,,
2740693,2024-03-12,AM,Catherine Wheeler-Mushlin,0.5,3290 Austin Bluffs Pkwy,Colorado Springs,CO,80918,8,3,,,5,,,,719-590-1442,RM - Rocky Mountain,Circle K,Center Store,,,,,,,,
2741137,2024-03-12,PM,Catherine Wheeler-Mushlin,0.5,4805 Barnes Rd,Colorado Springs,CO,80917,7,3,,,4,,,,719-596-1367,RM - Rocky Mountain,Circle K,Center Store,,,,,,,,
2703291,2024-03-13,AM,Catherine Wheeler-Mushlin,0.5,6135 N Carefree Circle,Colorado Springs,CO,80922,10,10,,,,,,,719-574-0555,RM - Rocky Mountain,Circle K,Center Store,,,,,,,,
2741190,2024-03-13,PM,Catherine Wheeler-Mushlin,0.5,5553 Austin Bluffs Pkwy,Colorado Springs,CO,80918,7,3,,,4,,,,719-260-9524,RM - Rocky Mountain,Circle K,Center Store,,,,,,,,
2703293,2024-03-14,AM,Catherine Wheeler-Mushlin,0.5,5995 Dublin Road,Colorado Springs,CO,80922,9,9,,,,,,,719-574-2360,RM - Rocky Mountain,Circle K,Center Store,,,,,,,,
2741173,2024-03-14,PM,Catherine Wheeler-Mushlin,0.5,11769 E Us Hwy 24,Falcon,CO,80831,8,8,,,,,,,719-495-3945,RM - Rocky Mountain,Circle K,Center Store,,,,,,,,
2704590,2024-03-15,AM,Catherine Wheeler-Mushlin,0.5,7492 Black Forest Road,Colorado Springs,CO,80910,9,9,,,,,,,719-495-2180,RM - Rocky Mountain,Circle K,Center Store,,,,,,,,
2709843,2024-03-15,PM,Catherine Wheeler-Mushlin,0.5,7480 Austin Bluffs Parkway,Colorado Springs,CO,80918,6,6,,,,,,,719-266-9163,RM - Rocky Mountain,Circle K,Center Store,,,,,,,,
12,2024-03-18,AM,Catherine Wheeler-Mushlin,1,308 E 1st St,LaJunta,CO,81050,9,,,,,,,,,RM - Rocky Mountain,Loves,Beverage,,,,,,,,
37,2024-03-19,AM,Catherine Wheeler-Mushlin,1,1100 Main St,Springfield,CO,81073,7,,,,,,,,,RM - Rocky Mountain,Loves,Beverage,,,,,,,,
38,2024-03-20,AM,Catherine Wheeler-Mushlin,1,301 E Olive St,Lamar,CO,81052,7,,,,,,,,,RM - Rocky Mountain,Loves,Beverage,,,,,,,,
23,2024-03-21,AM,Catherine Wheeler-Mushlin,1,605 N Main St,Lamar,CO,81052,9,,,,,,,,,RM - Rocky Mountain,Loves,Beverage,,,,,,,,
653,2024-03-22,AM,Catherine Wheeler-Mushlin,1,15596 US Highway 287,Eads,CO,81036,9,,,,,,,,,RM - Rocky Mountain,Loves,Beverage,,,,COMPLETE LOVES BOF SURVEY,,,,
2709853,2024-03-25,PM,Catherine Wheeler-Mushlin,0.5,15593 East Iliff Ave,Aurora,CO,80013,7,7,,,,,,,303-283-9758,RM - Rocky Mountain,Circle K,Center Store,,,,,,,,
2741136,2024-03-25,AM,Catherine Wheeler-Mushlin,0.5,2121 S Chambers Rd,Aurora,CO,80014,8,3,,,5,,,,303-337-6124,RM - Rocky Mountain,Circle K,Center Store,,,,,,,,
2741128,2024-03-26,AM,Catherine Wheeler-Mushlin,0.5,2601 S Tower Rd,Aurora,CO,80013,8,3,,,5,,,,303-695-8089,RM - Rocky Mountain,Circle K,Center Store,,,,,,,,
2744052,2024-03-26,PM,Catherine Wheeler-Mushlin,0.5,3504 S Tower Rd,Aurora,CO,80013,8,3,,,5,,,,303-766-6881,RM - Rocky Mountain,Circle K,Center Store,,,,,,,,
2741166,2024-03-28,AM,Catherine Wheeler-Mushlin,0.5,18565 E Smoky Hill Rd,Centennial,CO,80015,7,3,,,4,,,,303-617-0200,RM - Rocky Mountain,Circle K,Center Store,,,,,,,,
2741715,2024-03-28,PM,Catherine Wheeler-Mushlin,0.5,6220 S Gun Club Rd,Aurora,CO,80016,7,7,,,,,,,720-870-3544,RM - Rocky Mountain,Circle K,Center Store,,,,,,,,
2741127,2024-03-29,AM,Catherine Wheeler-Mushlin,1,14705 E Arapahoe Rd,Aurora,CO,80016,11,11,,,,8,,,720-870-2018,RM - Rocky Mountain,Circle K,Center Store,,,,,,,,
2709208,2024-04-01,PM,Catherine Wheeler-Mushlin,0.5,3211 Centennial Blvd,Colorado Springs,CO,80907,13,13,,,,,,,719-755-0896,RM - Rocky Mountain,Circle K,Center Store,,,,,,,,
2740675,2024-04-01,AM,Catherine Wheeler-Mushlin,0.5,2715 W Colorado Ave,Colorado Springs,CO,80904,8,3,,,5,,,,719-635-2669,RM - Rocky Mountain,Circle K,Center Store,,,,,,,,
2709874,2024-04-02,AM,Catherine Wheeler-Mushlin,1,435 W Garden of Gods Rd,Colorado Springs,CO,80907,12,12,,,,,,,719-594-0090,RM - Rocky Mountain,Circle K,Center Store,,,,,,,,
2709840,2024-04-03,AM,Catherine Wheeler-Mushlin,0.5,7055 Commerce Center Dr,Colorado Springs,CO,80919,9,9,,,,,,,719-590-6683,RM - Rocky Mountain,Circle K,Center Store,,,,,,,,
2741718,2024-04-03,PM,Catherine Wheeler-Mushlin,0.5,3464 Research Pkwy,Colorado Springs,CO,80920,7,7,,,,,,,719-282-6278,RM - Rocky Mountain,Circle K,Center Store,,,,,,,,
2709881,2024-04-04,AM,Catherine Wheeler-Mushlin,1,7805 N Academy,Colorado Springs,CO,80920,11,11,,,,,,,719-522-9674,RM - Rocky Mountain,Circle K,Center Store,,,,,,,,
2709847,2024-04-05,AM,Catherine Wheeler-Mushlin,1,120 S Rockrimmon Blvd,Colorado Springs,CO,80919,12,12,,,,,,,719-535-0351,RM - Rocky Mountain,Circle K,Center Store,,,,,,,,
2740688,2024-04-08,PM,Catherine Wheeler-Mushlin,0.5,680 Frontage Rd,Longmont,CO,80501,3,3,,,,,,,303-772-6821,RM - Rocky Mountain,Circle K,Center Store,,,,,,,,
2741147,2024-04-08,AM,Catherine Wheeler-Mushlin,0.5,575 S Hover Rd,Longmont,CO,80503,7,3,,,4,,,,303-684-6463,RM - Rocky Mountain,Circle K,Center Store,,,,,,,,
2703292,2024-04-09,PM,Catherine Wheeler-Mushlin,0.5,605 S Emery St,Longmont,CO,80501,10,10,,,,,,,303-485-9375,RM - Rocky Mountain,Circle K,Center Store,,,,,,,,
2709846,2024-04-09,AM,Catherine Wheeler-Mushlin,0.5,10963 I 25 Access Rd West,Longmont,CO,80501,9,9,,,,7.5,,,303-678-0539,RM - Rocky Mountain,Circle K,Center Store,,,,,,,,
2709082,2024-04-10,AM,Catherine Wheeler-Mushlin,1,6109 Firestone Blvd,Firestone,CO,80504,13,13,,,,,,,303-772-0804,RM - Rocky Mountain,Circle K,Center Store,,,,,,,,
2706787,2024-04-11,AM,Catherine Wheeler-Mushlin,1,5500 14th St,Frederick,CO,80530,12,12,,,,,,,720-689-6693,RM - Rocky Mountain,Circle K,Center Store,,,,,,,,
2706786,2024-04-12,AM,Catherine Wheeler-Mushlin,1,202 South Briggs St,Erie,CO,80516,12,12,,,,,,,720-259-8693,RM - Rocky Mountain,Circle K,Center Store,,,,,,,,
2706625,2024-04-15,AM,Catherine Wheeler-Mushlin,1,425 S Elm Rd,Eaton,CO,80615,12,12,,,,,,,970-454-8737,RM - Rocky Mountain,Circle K,Center Store,,,,,,,,
2709098,2024-04-16,AM,Catherine Wheeler-Mushlin,1,225 22nd St,Greeley,CO,80631,13,13,,,,,,,970-673-4566,RM - Rocky Mountain,Circle K,Center Store,,,,,,,,
2740641,2024-04-17,AM,Catherine Wheeler-Mushlin,1,2720 35Th Ave,Greeley,CO,80634,14,14,,,,,,,970-330-6197,RM - Rocky Mountain,Circle K,Center Store,,,,,,,,
2740697,2024-04-18,AM,Catherine Wheeler-Mushlin,0.5,113 N 2nd St,La Salle,CO,80645,6,6,,,,,,,970-284-5501,RM - Rocky Mountain,Circle K,Center Store,,,,,,,,
2744109,2024-04-18,PM,Catherine Wheeler-Mushlin,0.5,101 Denver Ave,Lupton,CO,80621,7,3,,,4,8,,,303-857-6066,RM - Rocky Mountain,Circle K,Center Store,,,,,,,,
2744089,2024-02-19,AM,Denver Three,5,,,,,,,,,,,,,,RM - Rocky Mountain,Circle K,Center Store,TRUE,,,,,,,
2703290,2024-02-20,AM,Denver Three,5,,,,,,,,,,,,,,RM - Rocky Mountain,Circle K,Center Store,TRUE,,,,,,,
2709898,2024-02-21,AM,Denver Three,4,,,,,,,,,,,,,,RM - Rocky Mountain,Circle K,Center Store,TRUE,,,,,,,
2740691,2024-02-22,AM,Denver Three,3,,,,,,,,,,,,,,RM - Rocky Mountain,Circle K,Center Store,TRUE,,,,,,,
2744079,2024-02-23,AM,Denver Three,2,,,,,,,,,,,,,,RM - Rocky Mountain,Circle K,Center Store,TRUE,,,,,,,
2709878,2024-02-26,AM,Denver Three,1,7425 E Arapahoe Rd,Centennial,CO,80112,7,7,,,,,,,303-694-6743,RM - Rocky Mountain,Circle K,Center Store,,,,,,,,
2709892,2024-02-27,AM,Denver Three,1,8663 South Quebec,Highlands Ranch,CO,80130,9,9,,,,,,,303-683-9922,RM - Rocky Mountain,Circle K,Center Store,,,,,,,,
2709904,2024-02-28,AM,Denver Three,1,9356 South Colorado Blvd,Highlands Ranch,CO,80126,6,6,,,,6,,,303-471-2839,RM - Rocky Mountain,Circle K,Center Store,,,,,,,,
2744100,2024-02-29,PM,Denver Three,0.5,8263 S Quebec St,Centennial,CO,80112,7,4,,,3,,,,303-721-0980,RM - Rocky Mountain,Circle K,Center Store,,,,,,,,
2744127,2024-02-29,AM,Denver Three,0.5,5171 E Arapahoe Rd,Centennial,CO,80122,7,4,,,3,,,,303-721-9187,RM - Rocky Mountain,Circle K,Center Store,,,,,,,,
2709905,2024-03-01,AM,Denver Three,0.5,3988 Red Cedar Drive,Highlands Ranch,CO,80126,7,4,,,3,,,,720-344-4089,RM - Rocky Mountain,Circle K,Center Store,,,,,,,,
2741189,2024-03-01,PM,Denver Three,0.5,9945 S Oswego St,Parker,CO,80134,11,5,,,6,,,,303-790-7728,RM - Rocky Mountain,Circle K,Center Store,,,,,,,,
2741119,2024-03-04,AM,Denver Three,0.5,10098 E Alameda Ave,Denver,CO,80231,7,7,,,,,,,303-366-2456,RM - Rocky Mountain,Circle K,Center Store,,,,,,,,
2744080,2024-03-04,PM,Denver Three,0.5,990 S Monaco Pkwy,Denver,CO,80224,7,4,,,3,,,,303-320-0081,RM - Rocky Mountain,Circle K,Center Store,,,,,,,,
2709854,2024-03-05,AM,Denver Three,0.5,1600 S Colorado,Denver,CO,80222,4,4,,,,,,,303-300-2089,RM - Rocky Mountain,Circle K,Center Store,,,,,,,,
2744094,2024-03-05,PM,Denver Three,0.5,7607 E Iliff Ave,Denver,CO,80231,7,4,,,3,,,,303-755-7110,RM - Rocky Mountain,Circle K,Center Store,,,,,,,,
2709899,2024-03-06,AM,Denver Three,0.5,2290 S Havana,Aurora,CO,80014,7,7,,,,,,,303-369-1092,RM - Rocky Mountain,Circle K,Center Store,,,,,,,,
2740696,2024-03-06,PM,Denver Three,0.5,2190 S Peoria St,Aurora,CO,80014,8,7,,,1,,,,303-671-0370,RM - Rocky Mountain,Circle K,Center Store,,,,,,,,
2709867,2024-03-07,AM,Denver Three,0.5,3595 S Yosemite,Denver,CO,80237,7,7,,,,,,,303-741-0341,RM - Rocky Mountain,Circle K,Center Store,,,,,,,,
2744099,2024-03-07,PM,Denver Three,0.5,7296 E Belleview Ave,Greenwood Village,CO,80110,5,5,,,,,,,303-770-6190,RM - Rocky Mountain,Circle K,Center Store,,,,,,,,
2709845,2024-03-08,PM,Denver Three,0.5,10553 E Briarwood,Centennial,CO,80112,7,7,,,,,,,303-649-9848,RM - Rocky Mountain,Circle K,Center Store,,,,,,,,
2709880,2024-03-08,AM,Denver Three,0.5,7701 E Orchard Rd,Greenwood Village,CO,80111,8,8,,,,,,,303-770-2637,RM - Rocky Mountain,Circle K,Center Store,,,,,,,,
2703294,2024-03-11,AM,Denver Three,0.5,1255 Academy Park Loop,Colorado Springs,CO,80910,10,10,,,,,,,719-596-6898,RM - Rocky Mountain,Circle K,Center Store,,,,,,,,
2740694,2024-03-11,PM,Denver Three,0.5,1740 Jet Wing Dr,Colorado Springs,CO,80916,8,3,,,5,,,,719-597-4428,RM - Rocky Mountain,Circle K,Center Store,,,,,,,,
2709222,2024-03-12,AM,Denver Three,0.5,1118 Areoplaza Drive,Colorado Springs,CO,80916,13,13,,,,,,,719-755-0996,RM - Rocky Mountain,Circle K,Center Store,,,,,,,,
2740687,2024-03-12,PM,Denver Three,0.5,2455 Arlington Dr,Colorado Springs,CO,80910,5,5,,,,,,,719-632-2284,RM - Rocky Mountain,Circle K,Center Store,,,,,,,,
2709848,2024-03-13,AM,Denver Three,0.5,1204 E Pikes Peak,Colorado Springs,CO,80909,7,7,,,,,,,719-471-1943,RM - Rocky Mountain,Circle K,Center Store,,,,,,,,
2744064,2024-03-13,PM,Denver Three,0.5,432 N Circle Dr,Colorado Springs,CO,80909,6,6,,,,,,,719-633-2962,RM - Rocky Mountain,Circle K,Center Store,,,,,,,,
2703598,2024-03-14,PM,Denver Three,0.5,613 Meadowbrook Pkwy,Colorado Springs,CO,80915,9,9,,,,,,,719-573-0576,RM - Rocky Mountain,Circle K,Center Store,,,,,,,,
2741168,2024-03-14,AM,Denver Three,0.5,5670 Palmer Park Blvd,Colorado Springs,CO,80915,7,3,,,4,,,,719-572-1006,RM - Rocky Mountain,Circle K,Center Store,,,,,,,,
2709090,2024-03-15,AM,Denver Three,0.5,3770 Citadel Drive N,Colorado Springs,CO,80909,13,13,,,,,,,719-530-7159,RM - Rocky Mountain,Circle K,Center Store,,,,,,,,
2709897,2024-03-15,PM,Denver Three,0.5,210 N Academy Blvd,Colorado Springs,CO,80909,5,5,,,,,,,719-380-1521,RM - Rocky Mountain,Circle K,Center Store,,,,,,,,
2709868,2024-03-18,AM,Denver Three,0.5,3600 W 38th Ave,Denver,CO,80211,8,8,,,,,,,303-477-9808,RM - Rocky Mountain,Circle K,Center Store,,,,,,,,
2740661,2024-03-18,PM,Denver Three,0.5,4498 Sheridan Blvd,Denver,CO,80212,6,6,,,,,,,303-433-7755,RM - Rocky Mountain,Circle K,Center Store,,,,,,,,
2709870,2024-03-19,PM,Denver Three,0.5,3805 Kipling St,Wheat Ridge,CO,80033,10,10,,,,,,,303-423-8434,RM - Rocky Mountain,Circle K,Center Store,,,,,,,,
2709885,2024-03-19,AM,Denver Three,0.5,4885 Kipling St,Wheat Ridge,CO,80033,8,8,,,,,,,303-420-4292,RM - Rocky Mountain,Circle K,Center Store,,,,,,,,
2741118,2024-03-20,AM,Denver Three,0.5,1890 Wadsworth Blvd,Lakewood,CO,80215,8,3,,,5,,,,303-235-0643,RM - Rocky Mountain,Circle K,Center Store,,,,,,,,
2744121,2024-03-20,PM,Denver Three,0.5,722 Kipling St,Lakewood,CO,80215,9,9,,,,,,,303-237-2411,RM - Rocky Mountain,Circle K,Center Store,,,,,,,,
2709888,2024-03-21,AM,Denver Three,0.5,15065 W Colfax Ave,Lakewood,CO,80401,10,4,,,6,,,,303-278-9838,RM - Rocky Mountain,Circle K,Center Store,,,,,,,,
2744113,2024-03-21,PM,Denver Three,0.5,17691 W Colfax Ave,Golden,CO,80401,8,8,,,,6,,,303-279-4783,RM - Rocky Mountain,Circle K,Center Store,,,,,,,,
2709884,2024-03-22,PM,Denver Three,0.5,9207 W Jewell Avenue,Lakewood,CO,80232,6,6,,,,,,,720-962-4599,RM - Rocky Mountain,Circle K,Center Store,,,,,,,,
2744120,2024-03-22,AM,Denver Three,0.5,1155 S Wadsworth Blvd,Lakewood,CO,80226,10,10,,,,6,,,303-986-4421,RM - Rocky Mountain,Circle K,Center Store,,,,,,,,
2709841,2024-03-25,AM,Denver Three,1,1190 West Baptist Road,Monument,CO,80132,8,8,,,,,,,719-487-8632,RM - Rocky Mountain,Circle K,Center Store,,,,,,,,
2740666,2024-03-26,PM,Denver Three,0.5,94 Wolfensberger Rd,Castle Rock,CO,80109,7,7,,,,,,,303-688-4654,RM - Rocky Mountain,Circle K,Center Store,,,,,,,,
2744059,2024-03-26,AM,Denver Three,0.5,310 S Wilcox St,Castle Rock,CO,80104,8,5,,,3,,,,303-688-2090,RM - Rocky Mountain,Circle K,Center Store,,,,,,,,
2709860,2024-03-27,AM,Denver Three,0.5,23 W Wolfensberger,Castle Rock,CO,80109,5,5,,,,,,,720-733-8180,RM - Rocky Mountain,Circle K,Center Store,,,,,,,,
2709901,2024-03-27,PM,Denver Three,0.5,246 Founders Parkway,Castle Rock,CO,80104,8,8,,,,,,,303-688-9147,RM - Rocky Mountain,Circle K,Center Store,,,,,,,,
2741126,2024-03-28,AM,Denver Three,0.5,13185 S Parker Rd,Parker,CO,80134,9,5,,,4,,,,720-851-1756,RM - Rocky Mountain,Circle K,Center Store,,,,,,,,
2744137,2024-03-28,PM,Denver Three,0.5,19302 E Plaza Dr,Parker,CO,80138,9,6,,,3,,,,303-840-2115,RM - Rocky Mountain,Circle K,Center Store,,,,,,,,
2704585,2024-03-29,PM,Denver Three,0.5,17001 Parkerhouse Road,Parker,CO,80134,10,10,,,,,,,720-316-5970,RM - Rocky Mountain,Circle K,Center Store,,,,,,,,
2741157,2024-03-29,AM,Denver Three,0.5,9701 S Parker Rd,Parker,CO,80134,8,3,,,5,,,,303-840-1974,RM - Rocky Mountain,Circle K,Center Store,,,,,,,,
2709091,2024-04-01,AM,Denver Three,1,2055 S Webster St,Lakewood,CO,80227,13,13,,,,,,,720-259-8676,RM - Rocky Mountain,Circle K,Center Store,,,,,,,,
2741179,2024-04-02,PM,Denver Three,0.5,14011 W Quincy Ave Suite A,Morrison,CO,80465,8,8,,,,,,,303-697-4211,RM - Rocky Mountain,Circle K,Center Store,,,,,,,,
2741188,2024-04-02,AM,Denver Three,0.5,2900 S Bear Creek Blvd,Lakewood,CO,80228,8,3,,,5,,,,303-986-3640,RM - Rocky Mountain,Circle K,Center Store,,,,,,,,
2741167,2024-04-03,AM,Denver Three,0.5,13456 W Bowles Ave,Littleton,CO,80127,11,7,,,4,,,,303-948-2609,RM - Rocky Mountain,Circle K,Center Store,,,,,,,,
2744126,2024-04-03,PM,Denver Three,0.5,4490 S Kipling St,Denver,CO,80123,7,4,,,3,,,,303-933-2078,RM - Rocky Mountain,Circle K,Center Store,,,,,,,,
2741141,2024-04-04,AM,Denver Three,0.5,4797 S Wadsworth Way,Denver,CO,80123,9,3,,,6,,,,303-932-9338,RM - Rocky Mountain,Circle K,Center Store,,,,,,,,
2744128,2024-04-04,PM,Denver Three,0.5,8500 W Crestline Ave,Denver,CO,80123,7,4,,,3,,,,303-933-2076,RM - Rocky Mountain,Circle K,Center Store,,,,,,,,
2709877,2024-04-05,PM,Denver Three,0.5,6798 West Ottawa,Littleton,CO,80128,7,3,,,4,,,,720-981-3154,RM - Rocky Mountain,Circle K,Center Store,,,,,,,,
2741722,2024-04-05,AM,Denver Three,0.5,9986 W Remington Pl,Littleton,CO,80128,7,7,,,,,,,720-981-9700,RM - Rocky Mountain,Circle K,Center Store,,,,,,,,
2741152,2024-04-08,PM,Denver Three,0.5,4502 S Timberline Rd,Fort Collins,CO,80525,7,4,,,3,,,,970-206-1459,RM - Rocky Mountain,Circle K,Center Store,,,,,,,,
2744105,2024-04-08,AM,Denver Three,0.5,2501 S Shields St,Fort Collins,CO,80525,7,4,,,3,,,,970-416-5718,RM - Rocky Mountain,Circle K,Center Store,,,,,,,,
2744104,2024-04-09,AM,Denver Three,0.5,4701 S Lemay Ave,Fort Collins,CO,80525,9,9,,,,,,,970-204-4524,RM - Rocky Mountain,Circle K,Center Store,,,,,,,,
2744135,2024-04-09,PM,Denver Three,0.5,2985 N Taft Ave,Loveland,CO,80525,11,8,,,3,,,,970-203-1321,RM - Rocky Mountain,Circle K,Center Store,,,,,,,,1/8/24 missing pallets tying to locate them 2/9/24 pallets located instide construction trailers rescheled for 1/11-1/12
2740645,2024-04-10,AM,Denver Three,0.5,2500 W Eisenhower Blvd,Loveland,CO,80537,6,6,,,,,,,970-663-7820,RM - Rocky Mountain,Circle K,Center Store,,,,,,,,
2741186,2024-04-10,PM,Denver Three,0.5,126 S Taft Ave,Loveland,CO,80537,8,8,,,,,,,970-663-7261,RM - Rocky Mountain,Circle K,Center Store,,,,,,,,
2740635,2024-04-11,PM,Denver Three,0.5,4206 Ute Hwy #66,Lyons,CO,80540,6,6,,,,,,,303-823-5480,RM - Rocky Mountain,Circle K,Center Store,,,,,,,,
2740698,2024-04-11,AM,Denver Three,0.5,1040 S Lincoln Ave,Loveland,CO,80537,13,13,,,,,,,970-663-6171,RM - Rocky Mountain,Circle K,Center Store,,,,,,,,
2709891,2024-04-12,PM,Denver Three,0.5,1124 Frances Street,Longmont,CO,80501,7,7,,,,,,,303-776-1738,RM - Rocky Mountain,Circle K,Center Store,,,,,,,,
2740650,2024-04-12,AM,Denver Three,0.5,1850 N Main St,Longmont,CO,80501,8,3,,,5,,,,303-682-2873,RM - Rocky Mountain,Circle K,Center Store,,,,,,,,
2709842,2024-04-15,PM,Denver Three,0.5,4570 Chambers Road,Denver,CO,80239,10,10,,,,,,,303-373-9990,RM - Rocky Mountain,Circle K,Center Store,,,,,,,,
2744074,2024-04-15,AM,Denver Three,0.5,5601 Quebec St,Commerce City,CO,80022,10,10,,,,,,,303-288-2060,RM - Rocky Mountain,Circle K,Center Store,,,,,,,,
2744051,2024-04-16,PM,Denver Three,0.5,3790 Chambers Rd,Aurora,CO,80011,10,5,,,5,,,,303-344-3810,RM - Rocky Mountain,Circle K,Center Store,,,,,,,,
2744054,2024-04-16,AM,Denver Three,0.5,1495 N Manila Rd,Bennett,CO,80102,9,9,,,,,,,303-644-3488,RM - Rocky Mountain,Circle K,Center Store,,,,,,,,
2744048,2024-04-17,AM,Denver Three,1,12796 E Colfax Ave,Aurora,CO,80011,5,0,,,5,,,,303-366-3067,RM - Rocky Mountain,Circle K,Center Store,,,,,,,,
,2024-04-29,AM,Denver Three,5,,,,,,,,,,,,,,RM - Rocky Mountain,Circle K,Beverage,TRUE,Tim,,,,,,
2741253,2024-01-08,AM,Ivan Morales,2,2210 Joe Battle Blvd,El Paso,TX,79938,16,16,105,5/4/4/3,,,,,,RM - Rocky Mountain,Circle K,Flex Roller,,,,,,,,
2741261,2024-01-10,AM,Ivan Morales,2,7660 N Mesa St,El Paso,TX,79912,12,12,70,,,,,12,,RM - Rocky Mountain,Circle K,Flex Roller,,,,,,,,
767,2024-01-15,AM,Ivan Morales,1,3400 Nafta Parkway,Brownsville,TX,78526,,,,,,,,,,TX - Texas,Loves,Beverage,,,,,,,,
885,2024-01-16,AM,Ivan Morales,1,21379 US 77 Expressway,Harlingen,TX,78550,,,,,,,,,,TX - Texas,Loves,Beverage,,,,,,,,
739,2024-01-17,AM,Ivan Morales,1,545 W I-2,Donna,TX,78537,,,,,,,,,,TX - Texas,Loves,Beverage,,,,,,,,
284,2024-01-18,AM,Ivan Morales,1,8420 N Expressway 281,Edinburg,TX,78542,,,,,,,,,,TX - Texas,Loves,Beverage,,,,,,,,
2709847,2024-01-29,AM,Ivan Morales,2,120 Rockrimmon Blvd,Colorado Springs,CO,80919,15,15,108,4/4/4/3,,,,,,RM - Rocky Mountain,Circle K,Flex Roller,,,,,,,,
2709843,2024-01-31,AM,Ivan Morales,1.5,7480 Austin Bluffs Parkway,Colorado Springs,CO,80918,9,9,61,5/4/0/0,,,,,,RM - Rocky Mountain,Circle K,Flex Roller,,,,,,,,
2709837,2024-02-01,PM,Ivan Morales,1.5,5885 Constitution Avenue,Colorado Springs,CO,80915,11,11,74,"4,5,2",,,,,,RM - Rocky Mountain,Circle K,Flex Roller,,,,,,,,
2709838,2024-02-05,AM,Ivan Morales,2,6560 South Academy Blvd,Colorado Springs,CO,80906,15,15,100,"1,2,3,5,4",,,,,,RM - Rocky Mountain,Circle K,Flex Roller,,,,,,,,
2741171,2024-02-07,AM,Ivan Morales,2,430 W. Abriendo Ave,Pueblo,CO,81004,12,12,72,"4,4,4",,,,,,RM - Rocky Mountain,Circle K,Flex Roller,,,,,,,,
817,2024-02-19,AM,Ivan Morales,1,2401 Airport Rd,Santa Teresa,NM,88008,,,,,,,,,,RM - Rocky Mountain,Loves,Beverage,,,,,,,,
259,2024-02-21,AM,Ivan Morales,1,8993 Robert Larson Blvd,Las Cruces,NM,88007,,,,,,,,,,TX - Texas,Loves,Beverage,,,,,,,,
276,2024-02-22,AM,Ivan Morales,1,900 W. Motel Dr.,Lordsburg,NM,88045,,,,,,,,,,TX - Texas,Loves,Beverage,,,,,,,,
831,2024-02-26,AM,Ivan Morales,1,1600 N Fort Grant Rd,Wilcox,AZ,85643,,,,,,,,,,TX - Texas,Loves,Beverage,,,,,,,,
460,2024-02-28,AM,Ivan Morales,1,643 S. Highway 90,Benson,AZ,85602,,,,,,,,,,TX - Texas,Loves,Beverage,,,,,,,,
9,2024-02-29,AM,Ivan Morales,1,640 State Road 90,Benson,AZ,85602,,,,,,,,,,RM - Rocky Mountain,Loves,Beverage,,,,,,,,
350,2024-03-01,AM,Ivan Morales,1,739 E. Frontage Road,Nogales,AZ,85621,,,,,,,,,,RM - Rocky Mountain,Loves,Beverage,,,,,,,,
2741262,2024-03-04,AM,Ivan Morales,1,9950 Gateway Blvd N,El Paso,TX,79924,12,12,,,,,,,915-751-0684,RM - Rocky Mountain,Circle K,Center Store,,,,,,,,
2741264,2024-03-05,AM,Ivan Morales,1,9050 Gateway Blvd N,El Paso,TX,79904,12,12,,,,,,,915-755-1123,RM - Rocky Mountain,Circle K,Center Store,,,,,,,,Started store on 1/9
2703298,2024-03-06,AM,Ivan Morales,1,10840 Dyer St,El Paso,TX,79934,7,7,,,,,,,915-822-2151,RM - Rocky Mountain,Circle K,Center Store,,,,,,,,
2700481,2024-03-07,AM,Ivan Morales,1,10616 Mccombs,El Paso,TX,79924,8,8,,,,,,,915-821-6564,RM - Rocky Mountain,Circle K,Center Store,,,,,,,,
2701257,2024-03-08,AM,Ivan Morales,1,10567 Rushing,El Paso,TX,79924,9,9,,,,,,,915-821-2232,RM - Rocky Mountain,Circle K,Center Store,,,,,,,,
2706024,2024-03-11,PM,Ivan Morales,0.5,8130 Alameda,El Paso,TX,79907,7,7,,,,,,,915-860-8664,RM - Rocky Mountain,Circle K,Center Store,,,,,,,,
2741271,2024-03-11,AM,Ivan Morales,0.5,513 Lomaland Dr,El Paso,TX,79907,6,6,,,,8,,,915-590-1207,RM - Rocky Mountain,Circle K,Center Store,,,,,,,,
2700450,2024-03-12,AM,Ivan Morales,0.5,7100 N Loop,El Paso,TX,79915,7,4,,,3,,,,915-775-1381,RM - Rocky Mountain,Circle K,Center Store,,,,,,,,
2741256,2024-03-12,PM,Ivan Morales,0.5,7008 Gateway Blvd E,El Paso,TX,79915,4,4,,,,,,,915-779-0635,RM - Rocky Mountain,Circle K,Center Store,,,,,,,,
2700026,2024-03-13,AM,Ivan Morales,0.5,3101 Mc Rae,El Paso,TX,79925,7,7,,,,,,,915-591-6654,RM - Rocky Mountain,Circle K,Center Store,,,,,,,,
2706104,2024-03-13,PM,Ivan Morales,0.5,10120 Montana Ave,El Paso,TX,79925,7,7,,,,,,,915-591-0087,RM - Rocky Mountain,Circle K,Center Store,,,,,,,,
2706126,2024-03-14,PM,Ivan Morales,0.5,6148 Gateway East,El Paso,TX,79905,4,4,,,,,,,915-881-9575,RM - Rocky Mountain,Circle K,Center Store,,,,,,,,
2706620,2024-03-14,AM,Ivan Morales,0.5,1612 Hawkins Blvd,El Paso,TX,79925,12,12,,,,,,,915-843-2759,RM - Rocky Mountain,Circle K,Center Store,,,,,,,,
2705306,2024-03-15,PM,Ivan Morales,0.5,6095 Montana,El Paso,TX,79925,7,7,,,,,,,915-771-7032,RM - Rocky Mountain,Circle K,Center Store,,,,,,,,
2741362,2024-03-15,AM,Ivan Morales,0.5,1250 Airway Blvd,El Paso,TX,79925,6,6,,,,8,,,915-779-0779,RM - Rocky Mountain,Circle K,Center Store,,,,,,,,
2704485,2024-03-18,AM,Ivan Morales,1,13008 Indiana Ave,Lubbock,TX,79423,13,13,,,,,,,806-642-0861,RM - Rocky Mountain,Circle K,Center Store,,,,,,,,
2709096,2024-03-19,AM,Ivan Morales,1,7202 Indiana Ave,Lubbock,TX,79423,13,13,,,,,,,806-796-3925,RM - Rocky Mountain,Circle K,Center Store,,,,,,,,
2709095,2024-03-20,AM,Ivan Morales,1,9703 Milwaukee Ave,Lubbock,TX,79424,13,13,,,,,,,806-224-1179,RM - Rocky Mountain,Circle K,Center Store,,,,,,,,
2704486,2024-03-21,AM,Ivan Morales,1,103 W Loop 289,Lubbock,TX,79416,13,13,,,,,,,806-368-4203,RM - Rocky Mountain,Circle K,Center Store,,,,,,,,
2709094,2024-03-22,AM,Ivan Morales,1,6601 Milwaukee Ave,Lubbock,TX,79424,13,13,,,,,,,806-698-6873,RM - Rocky Mountain,Circle K,Center Store,,,,,,,,
492,2024-03-25,AM,Ivan Morales,1,5202 South Cedar St.,Pecos,TX,79772,,,,,,,,,,RM - Rocky Mountain,Loves,Beverage,,,,,,,,
256,2024-03-26,AM,Ivan Morales,1,810 E Broadway,Van Horn,TX,79855,,,,,,,,,,RM - Rocky Mountain,Loves,Beverage,,,,,,,,
214,2024-03-27,AM,Ivan Morales,1,1300 Horizon Blvd.,El Paso,TX,79928,,,,,,,,,,RM - Rocky Mountain,Loves,Beverage,,,,,,,,
447,2024-03-28,AM,Ivan Morales,1,3000 Mountain Pass Blvd,Anthony,TX,79821,,,,,,,,,,RM - Rocky Mountain,Loves,Beverage,,,,,,,,
2700515,2024-04-01,AM,Ivan Morales,1,914 Date,T or C,NM,87901,6,6,,,,,,,575-894-4335,RM - Rocky Mountain,Circle K,Center Store,,,,,,,,
2709675,2024-04-02,AM,Ivan Morales,1,624 Franklin St,Hatch,NM,87937,15,15,,,,,,,575-267-8813,RM - Rocky Mountain,Circle K,Center Store,,,,,,,,
2706001,2024-04-03,AM,Ivan Morales,0.5,801 E Thorpe Road,Las Cruces,NM,88007,10,10,,,,,,,575-647-3767,RM - Rocky Mountain,Circle K,Center Store,,,,,,,,
2709671,2024-04-03,PM,Ivan Morales,0.5,2701 Elks Dr,Las Cruces,NM,88005,10,10,,,,,,,575-526-6124,RM - Rocky Mountain,Circle K,Center Store,,,,,,,,
2700278,2024-04-04,PM,Ivan Morales,0.5,617 W Picacho,Las Cruces,NM,88001,10,10,,,,8,,,575-524-1470,RM - Rocky Mountain,Circle K,Center Store,,,,,,,,
2709679,2024-04-04,AM,Ivan Morales,0.5,2601 Dona Ana Rd,Dona Ana,NM,88007,10,10,,,,,,,575-249-3793,RM - Rocky Mountain,Circle K,Center Store,,,,,,,,
2709670,2024-04-05,AM,Ivan Morales,0.5,825 Avenida de Mesilla,Las Cruces,NM,88005,7,7,,,,10,,,575-526-6485,RM - Rocky Mountain,Circle K,Center Store,,,,,,,,
2741291,2024-04-05,PM,Ivan Morales,0.5,1305 El Paseo St,Las Cruces,NM,88001,8,8,,,,,,,575-526-4420,RM - Rocky Mountain,Circle K,Center Store,,,,,,,,
2709666,2024-04-08,PM,Ivan Morales,0.5,2580 Don Roser Dr,Las Cruces,NM,88011,16,16,,,,,,,575-522-5441,RM - Rocky Mountain,Circle K,Center Store,,,,,,,,
2709667,2024-04-08,AM,Ivan Morales,0.5,2240 E Missouri Ave,Las Cruces,NM,88001,3,3,,,,12,,,575-522-5001,RM - Rocky Mountain,Circle K,Center Store,,,,,,,,
2709674,2024-04-09,PM,Ivan Morales,0.5,211 E Union Ave,Las Cruces,NM,88001,8,8,,,,,,,575-523-0739,RM - Rocky Mountain,Circle K,Center Store,,,,,,,,
2709678,2024-04-09,AM,Ivan Morales,0.5,1770 Telshore Blvd,Las Cruces,NM,88011,8,8,,,,,,,575-522-5774,RM - Rocky Mountain,Circle K,Center Store,,,,,,,,
2709672,2024-04-10,AM,Ivan Morales,1,3925 S Main St,Las Cruces,NM,88005,16,16,,,,,,,575-526-6958,RM - Rocky Mountain,Circle K,Center Store,,,,,,,,
2709676,2024-04-11,PM,Ivan Morales,0.5,1705 Anthony Dr,Anthony,NM,88021,8,8,,,,,,,575 -882-1832,RM - Rocky Mountain,Circle K,Center Store,,,,,,,,
2709683,2024-04-11,AM,Ivan Morales,0.5,8336 Hwy 478,Vado,NM,88072,8,8,,,,,,,575-233-2578,RM - Rocky Mountain,Circle K,Center Store,,,,,,,,
2701641,2024-04-12,AM,Ivan Morales,1,601 S Main St,Anthony,TX,79821,7,7,,,,,,,915-886-5246,RM - Rocky Mountain,Circle K,Center Store,,,,,,,,
2705313,2024-04-15,PM,Ivan Morales,0.5,4501 Transmountain,El Paso,TX,79924,7,7,,,,6,,,915-757-3018,RM - Rocky Mountain,Circle K,Center Store,,,,,,,,
2741373,2024-04-15,AM,Ivan Morales,0.5,10650 Gateway Blvd N,El Paso,TX,79924,6,6,,,,8,,,915-821-3968,RM - Rocky Mountain,Circle K,Center Store,,,,,,,,
2706089,2024-04-16,AM,Ivan Morales,1,9497 Dyer,El Paso,TX,79924,4,4,,,,,,,915-751-1912,RM - Rocky Mountain,Circle K,Center Store,,,,,,,,
2703299,2024-04-17,AM,Ivan Morales,0.5,6410 Doniphan Dr,El Paso,TX,79932,8,8,,,,,,,915-842-8707,RM - Rocky Mountain,Circle K,Center Store,,,,,,,,
2741274,2024-04-17,PM,Ivan Morales,0.5,5600 Doniphan Dr,El Paso,TX,79932,7,7,,,,,,,915-587-5975,RM - Rocky Mountain,Circle K,Center Store,,,,,,,,
2706288,2024-04-18,AM,Ivan Morales,0.5,5665 Desert S Road,El Paso,TX,79932,9,9,,,,,,,915-581-5445,RM - Rocky Mountain,Circle K,Center Store,,,,,,,,
2741748,2024-04-18,PM,Ivan Morales,0.5,5600 N Desert Blvd,El Paso,TX,79912,6,6,,,,,,,915-581-7958,RM - Rocky Mountain,Circle K,Center Store,,,,,,,,
2708515,2024-04-19,AM,Ivan Morales,1,1073 Country Club Rd,El Paso,TX,79932,8,8,,,,,,,915-587-4582,RM - Rocky Mountain,Circle K,Center Store,,,,,,,,
2709093,2024-04-22,AM,Ivan Morales,1,3402 Milwaukee Ave,Lubbock,TX,79407,10,10,,,,,,,806-795-1912,RM - Rocky Mountain,Circle K,Center Store,,,,,,,,
2709949,2024-04-23,AM,Ivan Morales,1,5810 19th Street,Lubbock,TX,79407,,,,,,,,,,RM - Rocky Mountain,Circle K,Center Store,,,,,,,,
2701341,2024-06-17,AM,Ivan Morales,0.5,26319 Us Hwy 70,Ruidoso,NM,88346,9,9,,,,,,,575-378-8409,RM - Rocky Mountain,Circle K,Beverage,,,,,,,,
2741285,2024-06-17,PM,Ivan Morales,0.5,1616 10th St,Alamogordo,NM,88310,7,7,,,,,,,575-437-9412,RM - Rocky Mountain,Circle K,Beverage,,,,,,,,
2709681,2024-06-18,PM,Ivan Morales,0.5,2001 Battan Memorial,Las Cruces,NM,88012,10,10,,,,,,,575-382-6995,RM - Rocky Mountain,Circle K,Beverage,,,,,,,,
2741296,2024-06-18,AM,Ivan Morales,0.5,657 S White Sands Blvd,Alamogordo,NM,88310,7,7,,,,,,,575-434-6224,RM - Rocky Mountain,Circle K,Beverage,,,,,,,,
2709682,2024-06-19,AM,Ivan Morales,1,4675 Sonoma Ranch,Las Cruces,NM,88011,16,16,,,,,,,575-382-6859,RM - Rocky Mountain,Circle K,Beverage,,,,,,,,
2709673,2024-06-20,AM,Ivan Morales,0.5,3811 E Lohman Ave,Las Cruces,NM,88011,8,8,,,,,,,575-522-5121,RM - Rocky Mountain,Circle K,Beverage,,,,,,,,
2709677,2024-06-20,PM,Ivan Morales,0.5,855 S Walnut St,Las Cruces,NM,88001,10,10,,,,,,,575-523-0191,RM - Rocky Mountain,Circle K,Beverage,,,,,,,,
2709665,2024-06-21,AM,Ivan Morales,0.5,1501 E Amador Ave,Las Cruces,NM,88001,7,7,,,,,,,575-523-0718,RM - Rocky Mountain,Circle K,Beverage,,,,,,,,
2741289,2024-06-21,PM,Ivan Morales,0.5,1401 E Lohman Ave,Las Cruces,NM,88001,9,9,,,,8,,,575-525-9847,RM - Rocky Mountain,Circle K,Beverage,,,,,,,,
2700006,2024-06-24,AM,Ivan Morales,0.5,5040 Paisano,El Paso,TX,79905,6,6,,,,8,,,915-775-0645,RM - Rocky Mountain,Circle K,Beverage,,,,,,,,
2741269,2024-06-24,PM,Ivan Morales,0.5,4421 Montana Ave,El Paso,TX,79903,4,4,,,,,,,915-565-4820,RM - Rocky Mountain,Circle K,Beverage,,,,,,,,
2701418,2024-06-25,AM,Ivan Morales,0.5,"3910 ""A"" Dyer",El Paso,TX,79930,9,9,,,,,,,915-565-2453,RM - Rocky Mountain,Circle K,Beverage,,,,,,,,
2708516,2024-06-25,PM,Ivan Morales,0.5,4101 Piedras,El Paso,TX,79930,8,8,,,,8,,,915-565-0479,RM - Rocky Mountain,Circle K,Beverage,,,,,,,,
2741259,2024-06-26,AM,Ivan Morales,0.5,1915 Montana Ave,El Paso,TX,79902,4,4,,,,,,,915-542-3184,RM - Rocky Mountain,Circle K,Beverage,,,,,,,,
2741365,2024-06-26,PM,Ivan Morales,0.5,300 S Saint Vrain,El Paso,TX,79901,5,5,,,,,,,915-544-0675,RM - Rocky Mountain,Circle K,Beverage,,,,,,,,
2701227,2024-06-27,AM,Ivan Morales,0.5,1400 W Yandell,El Paso,TX,79902,6,6,,,,6,,,915-533-2452,RM - Rocky Mountain,Circle K,Beverage,,,,,,,,
2706130,2024-06-27,PM,Ivan Morales,0.5,2200 N Mesa,El Paso,TX,79902,8,8,,,,,,,915-532-6257,RM - Rocky Mountain,Circle K,Beverage,,,,,,,,
2741350,2024-06-28,PM,Ivan Morales,0.5,660 Sunland Park Dr,El Paso,TX,79912,7,7,,,,,,,915-581-5890,RM - Rocky Mountain,Circle K,Beverage,,,,,,,,
2741359,2024-06-28,AM,Ivan Morales,0.5,4201 N Mesa St,El Paso,TX,79902,6,6,,,,8,,,915-545-2726,RM - Rocky Mountain,Circle K,Beverage,,,,,,,,
2706298,1899-12-30,PM,Mechelle Corpuz,0.5,5501 Alameda Blvd Ne,Albuquerque,NM,87113,16,,106,,,,,,,RM - Rocky Mountain,Circle K,Flex Roller,,,MISSING PARTS - RESCHEDULE PENDING NEW SURVEY,,,,,
2701430,2024-01-03,AM,Mechelle Corpuz,1,301 Central Ave,Moriarty,NM,87035,14,,86,,,,,,,RM - Rocky Mountain,Circle K,Flex Roller,,,RESCHEDULE - PARTS ALREADY AT STORE,1/8/24 add on equipment still has not arrive,,,,
2706169,2024-01-05,AM,Mechelle Corpuz,1,3622 Hwy 528 Nw,Albuquerque,NM,87114,16,,93,,,,,,,RM - Rocky Mountain,Circle K,Flex Roller,,,MISSING PARTS - FINISH INSTALL moved up date from 1/10,,,,,
2709095,2024-01-08,AM,Mechelle Corpuz,1,9703 Milwaukee Ave,Lubbock,TX,79424,21,,150,,,,,,,RM - Rocky Mountain,Circle K,Flex Roller,,,MISSING PARTS - FINISH INSTALL,Completed,,,,
2700839,2024-01-09,AM,Mechelle Corpuz,1,601 E. Tucumcari,Tucumcari,NM,88401,14,,92,,,,,,,RM - Rocky Mountain,Circle K,Flex Roller,,,MISSING PARTS - FINISH INSTALL,Missing brackets for Beer sec need to reschedule,,,,
215,2024-01-22,AM,Mechelle Corpuz,1,3380 W. 66th,Gallup,NM,87301,9,,,,,,,,,RM - Rocky Mountain,Loves,Beverage,,,,,,,,
257,2024-01-23,AM,Mechelle Corpuz,1,257 Horizon Blvd,Milan,NM,87021,13,,,,,,,,,RM - Rocky Mountain,Loves,Beverage,,,,,,,,
726,2024-01-24,AM,Mechelle Corpuz,1,1903 Camino Del Llano,Belen,NM,87002,12,,,,,,,,,RM - Rocky Mountain,Loves,Beverage,,,,,,,,
614,2024-01-25,AM,Mechelle Corpuz,1,12605 Central Ave NW,Albuquerque,NM,87121,11,,,,,,,,,RM - Rocky Mountain,Loves,Beverage,,,,,,,,
210,2024-01-26,AM,Mechelle Corpuz,1,2200 6th St NW,Albuquerque,NM,87102,11,,,,,,,,,RM - Rocky Mountain,Loves,Beverage,,,,,,,,
22,2024-01-29,AM,Mechelle Corpuz,1,703 S 1st St,Clayton,NM,88415,13,,,,,,,,,RM - Rocky Mountain,Loves,Beverage,,,,,,,,
733,2024-01-31,AM,Mechelle Corpuz,1,2401 N Grand Ave,Las Vegas,NM,87701,9,,,,,,,,,RM - Rocky Mountain,Loves,Beverage,,,,,,,,
285,2024-02-01,AM,Mechelle Corpuz,1,1028 State Highway 156,Santa Rosa,NM,88435,11,,,,,,,,,RM - Rocky Mountain,Loves,Beverage,,,,,,,,
2700686,2024-02-19,AM,Mechelle Corpuz,1,10000 De Vargas Sw,Albuquerque,NM,87121,12,12,,,,,,,505-836-2379,RM - Rocky Mountain,Circle K,Center Store,,,,,,,,
2706145,2024-02-20,AM,Mechelle Corpuz,1,7000 Montgomery Ne,Albuquerque,NM,87109,16,16,,,,,,,505-881-0461,RM - Rocky Mountain,Circle K,Center Store,,,,,,,,
2706334,2024-02-21,AM,Mechelle Corpuz,1,7524 Menaul Blvd Ne,Albuquerque,NM,87110,13,13,,,,8,,,505-881-5279,RM - Rocky Mountain,Circle K,Center Store,,,,,,,,
2707962,2024-02-22,AM,Mechelle Corpuz,1,5101 San Mateo Ne,Albuquerque,NM,87109,11,11,,,,,,,505-884-3762,RM - Rocky Mountain,Circle K,Center Store,,,,,,,,
2708943,2024-02-23,AM,Mechelle Corpuz,1,300 Lomas Blvd Ne,Albuquerque,NM,87102,11,11,,,,,,,505-242-2839,RM - Rocky Mountain,Circle K,Center Store,,,,,,,,
2704400,2024-02-26,AM,Mechelle Corpuz,1,7217 S Western,Amarillo,TX,79110,13,13,,,,,,,806-641-0954,RM - Rocky Mountain,Circle K,Center Store,,,,,,,,
2709221,2024-02-27,AM,Mechelle Corpuz,1,7505 Helium Rd,Amarillo,TX,79119,13,13,,,,,,,806-553-4480,RM - Rocky Mountain,Circle K,Center Store,,,,,,,,
2708931,2024-02-28,PM,Mechelle Corpuz,0.5,2624 S 1st Street,Tucumcari,NM,88401,9,9,,,,,,,575-461-4101,RM - Rocky Mountain,Circle K,Center Store,,,,,,,,
2708933,2024-02-29,AM,Mechelle Corpuz,1,1315 E Will Rogers Dr,Santa Rosa,NM,88435,7,2,,,5,,,,575-472-4673,RM - Rocky Mountain,Circle K,Center Store,,,,,,,,
392,2024-03-04,AM,Mechelle Corpuz,1,2000 East Tehachapi Blvd.,Tehachapi,CA,93561,11,,,,,,,,,WC - West Coast,Loves,Beverage,,,,,,,,
749,2024-03-05,AM,Mechelle Corpuz,1,551 West Main Street,Westmorland,CA,92281,12,,,,,,,,,WC - West Coast,Loves,Beverage,,,,,,,,
207,2024-03-06,AM,Mechelle Corpuz,1,45-761 Dillon Rd.,Coachella,CA,92236,9,,,,,,,,,WC - West Coast,Loves,Beverage,,,,,,,,
374,2024-03-07,AM,Mechelle Corpuz,1,2974 Lenwood Rd.,Barstow,CA,92311,11,,,,,,,,,WC - West Coast,Loves,Beverage,,,,,,,,
755,2024-03-08,AM,Mechelle Corpuz,1,27201 Boron Frontage Rd N,Boron,CA,93516,12,,,,,,,,,WC - West Coast,Loves,Beverage,,,,,,,,
2741213,2024-03-11,PM,Mechelle Corpuz,0.5,1100 Old Coors Dr Sw,Albuquerque,NM,87121,9,9,,,,,,,505-246-0652,RM - Rocky Mountain,Circle K,Center Store,,,,,,,,
2741243,2024-03-11,AM,Mechelle Corpuz,0.5,141 98Th St Nw,Albuquerque,NM,87121,7,7,,,,8,6,,505-833-0160,RM - Rocky Mountain,Circle K,Center Store,,,,,,,,
2706305,2024-03-12,PM,Mechelle Corpuz,0.5,1401 Coors Nw,Albuquerque,NM,87121,9,9,,,,,,,505-836-8732,RM - Rocky Mountain,Circle K,Center Store,,,,,,,,
2741212,2024-03-12,AM,Mechelle Corpuz,0.5,361 Coors Blvd Nw,Albuquerque,NM,87121,9,9,,,,,,,505-831-4683,RM - Rocky Mountain,Circle K,Center Store,,,,,,,,
2708935,2024-03-13,PM,Mechelle Corpuz,0.5,5311 Quail Ave Nw,Albuquerque,NM,87120,5,5,,,,,,,505-833-0673,RM - Rocky Mountain,Circle K,Center Store,,,,,,,,
2741246,2024-03-13,AM,Mechelle Corpuz,0.5,7940 Ladera Dr Nw,Albuquerque,NM,87120,10,10,,,,,,,505-352-6917,RM - Rocky Mountain,Circle K,Center Store,,,,,,,,
2741226,2024-03-14,AM,Mechelle Corpuz,0.5,511 Bridge Blvd Sw,Albuquerque,NM,87102,4,4,,,,,,,505-842-0463,RM - Rocky Mountain,Circle K,Center Store,,,,,,,,
2741252,2024-03-14,PM,Mechelle Corpuz,0.5,555 Rio Bravo Blvd Se,Albuquerque,NM,87105,8,8,,,,,,,505-873-3398,RM - Rocky Mountain,Circle K,Center Store,,,,,,,,
2701777,2024-03-15,PM,Mechelle Corpuz,0.5,2001 Menual Ne,Albuquerque,NM,87107,7,7,,,,,,,505-881-2138,RM - Rocky Mountain,Circle K,Center Store,,,,,,,,
2741223,2024-03-15,AM,Mechelle Corpuz,0.5,1425 University Blvd Ne,Albuquerque,NM,87102,7,7,,,,,,,505-243-0350,RM - Rocky Mountain,Circle K,Center Store,,,,,,,,
2703586,2024-03-18,AM,Mechelle Corpuz,0.5,819 NM Hwy 516,Flora Vista,NM,87415,10,10,,,,,,,505-334-2940,RM - Rocky Mountain,Circle K,Center Store,,,,,,,,
2741734,2024-03-18,PM,Mechelle Corpuz,0.5,4913 E Main St,Farmington,NM,87401,,,,,,,,,,,,,,,,,,,,
2708945,2024-03-19,AM,Mechelle Corpuz,1,6401 Highway 550,Cuba,NM,87013,8,8,,,,,,,575-289-2301,RM - Rocky Mountain,Circle K,Center Store,,,,,,,,
2741217,2024-03-20,AM,Mechelle Corpuz,1,385 W Hwy 550,Bernalillo,NM,87004,9,9,,,,,,,505-867-6204,RM - Rocky Mountain,Circle K,Center Store,,,,,,,,
2706276,2024-03-21,AM,Mechelle Corpuz,0.5,229 New Mexico Hwy 528,Rio Rancho,NM,87124,9,9,,,,,,,505-892-6440,RM - Rocky Mountain,Circle K,Center Store,,,,,,,,
2741220,2024-03-21,PM,Mechelle Corpuz,0.5,2505 Southern Blvd Se,Rio Rancho,NM,87124,9,5,,,4,,,,505-891-1330,RM - Rocky Mountain,Circle K,Center Store,,,,,,,,
2741241,2024-03-22,PM,Mechelle Corpuz,0.5,10731 Corrales Rd Nw,Albuquerque,NM,87114,10,10,,,,,,,505-897-0228,RM - Rocky Mountain,Circle K,Center Store,,,,,,,,
2705317,2024-03-25,AM,Mechelle Corpuz,0.5,13401 Lomas Blvd Ne,Albuquerque,NM,87112,7,7,,,,,,,505-292-9151,RM - Rocky Mountain,Circle K,Center Store,,,,,,,,
2706118,2024-03-25,PM,Mechelle Corpuz,0.5,900 Juan Tabo Ne,Albuquerque,NM,87111,5,5,,,,,,,505-292-4907,RM - Rocky Mountain,Circle K,Center Store,,,,,,,,
2706282,2024-03-26,AM,Mechelle Corpuz,0.5,12600 Central Se,Albuquerque,NM,87123,6,6,,,,,,,505-292-4402,RM - Rocky Mountain,Circle K,Center Store,,,,,,,,
2741214,2024-03-26,PM,Mechelle Corpuz,0.5,10315 Central Ave Ne,Albuquerque,NM,87123,8,8,,,,,,,505-291-1844,RM - Rocky Mountain,Circle K,Center Store,,,,,,,,
2652025,2024-03-27,AM,Mechelle Corpuz,0.5,8601 Central Ave NE,Albuquerque,NM,87108,9,9,,,,,,,505-254-9765,RM - Rocky Mountain,Circle K,Center Store,,,,,,,,
2741225,2024-03-27,PM,Mechelle Corpuz,0.5,7600 Lomas Blvd Ne,Albuquerque,NM,87110,7,7,,,,,,,505-266-0809,RM - Rocky Mountain,Circle K,Center Store,,,,,,,,
2652024,2024-03-28,AM,Mechelle Corpuz,0.5,6300 Central Ave SE,Albuquerque,NM,87108,8,8,,,,,,,505-266-7941,RM - Rocky Mountain,Circle K,Center Store,,,,,,,,
2741237,2024-03-28,PM,Mechelle Corpuz,0.5,4420 Zuni Rd Se,Albuquerque,NM,87108,9,9,,,,,,,505-268-7264,RM - Rocky Mountain,Circle K,Center Store,,,,,,,,
2706141,2024-03-29,PM,Mechelle Corpuz,0.5,1331 Wyoming Blvd Ne,Albuquerque,NM,87110,9,9,,,,,,,505-292-5052,RM - Rocky Mountain,Circle K,Center Store,,,,,,,,
2706299,2024-03-29,AM,Mechelle Corpuz,0.5,900 Eubank Blvd Ne,Albuquerque,NM,87112,8,8,,,,,,,505-292-5164,RM - Rocky Mountain,Circle K,Center Store,,,,,,,,
2706000,2024-04-01,AM,Mechelle Corpuz,1,924 W Hwy 85,Socorro,NM,87801,8,6,,,2,,,,575-838-2904,RM - Rocky Mountain,Circle K,Center Store,,,,,,,,
2706998,2024-04-02,AM,Mechelle Corpuz,1,1006 N California,Socorro,NM,87801,13,13,,,,,,,575-418-6754,RM - Rocky Mountain,Circle K,Center Store,,,,,,,,
2704582,2024-04-03,PM,Mechelle Corpuz,0.5,618 N Main Street,Belen,NM,87002,11,11,,,,,,,505-864-6674,RM - Rocky Mountain,Circle K,Center Store,,,,,,,,
2741247,2024-04-03,AM,Mechelle Corpuz,0.5,601 E Reinken Ave,Belen,NM,87002,6,6,,,,,,,505-861-0519,RM - Rocky Mountain,Circle K,Center Store,,,,,,,,
2708938,2024-04-04,PM,Mechelle Corpuz,0.5,1860 Main St Nw,Los Lunas,NM,87031,7,6,,,1,,,,505-866-1933,RM - Rocky Mountain,Circle K,Center Store,,,,,,,,
2741238,2024-04-04,AM,Mechelle Corpuz,0.5,1775 Main St Sw,Los Lunas,NM,87031,7,1,,,6,,,,505-866-5682,RM - Rocky Mountain,Circle K,Center Store,,,,,,,,
2700610,2024-04-05,AM,Mechelle Corpuz,0.5,4400 Coors Sw,Albuquerque,NM,87121,10,10,,,,,,,505-877-9509,RM - Rocky Mountain,Circle K,Center Store,,,,,,,,
2741236,2024-04-05,PM,Mechelle Corpuz,0.5,3440 Isleta Blvd Sw,Albuquerque,NM,87105,7,2,,,5,,,,505-877-3791,RM - Rocky Mountain,Circle K,Center Store,,,,,,,,
2708748,2024-04-08,AM,Mechelle Corpuz,0.5,2019 Carlisle Ne,Albuquerque,NM,87110,8,8,,,,,,,505-265-0817,RM - Rocky Mountain,Circle K,Center Store,,,,,,,,
2741245,2024-04-08,PM,Mechelle Corpuz,0.5,1715 Moon St Ne,Albuquerque,NM,87112,9,9,,,,,,,505-323-0528,RM - Rocky Mountain,Circle K,Center Store,,,,,,,,
2708551,2024-04-09,AM,Mechelle Corpuz,0.5,2934 Eubank Ne,Albuquerque,NM,87112,8,8,,,,,,,505-291-1738,RM - Rocky Mountain,Circle K,Center Store,,,,,,,,
2741244,2024-04-09,PM,Mechelle Corpuz,0.5,3700 Eubank Blvd Ne,Albuquerque,NM,87111,9,9,,,,,,,505-323-0432,RM - Rocky Mountain,Circle K,Center Store,,,,,,,,
2706281,2024-04-10,PM,Mechelle Corpuz,0.5,5301 Wyoming Blvd Ne,Albuquerque,NM,87109,6,6,,,,,,,505-821-1276,RM - Rocky Mountain,Circle K,Center Store,,,,,,,,
2706293,2024-04-10,AM,Mechelle Corpuz,0.5,9811 Montgomery Blvd,Albuquerque,NM,87111,6 + 8ft,6,,,,8,,,505-292-5159,RM - Rocky Mountain,Circle K,Center Store,,,,,,,,
2706280,2024-04-11,PM,Mechelle Corpuz,0.5,6951 San Antonio Dr Ne,Albuquerque,NM,87109,9,9,,,,,,,505-821-0770,RM - Rocky Mountain,Circle K,Center Store,,,,,,,,
2708942,2024-04-11,AM,Mechelle Corpuz,0.5,8101 Harper Ne,Albuquerque,NM,87111,7,7,,,,,,,505-797-9571,RM - Rocky Mountain,Circle K,Center Store,,,,,,,,
2708941,2024-04-12,AM,Mechelle Corpuz,0.5,4300 Osuna Rd Ne,Albuquerque,NM,87109,5,5,,,,4,2,,505-343-8311,RM - Rocky Mountain,Circle K,Center Store,,,,,,,,
2708944,2024-04-12,PM,Mechelle Corpuz,0.5,1400 Montano Ne,Albuquerque,NM,87107,8,8,,,,,,,505-341-1763,RM - Rocky Mountain,Circle K,Center Store,,,,,,,,
2705323,2024-04-15,PM,Mechelle Corpuz,0.5,8311 Golf Course,Albuquerque,NM,87120,7,7,,,,,,,505-890-9347,RM - Rocky Mountain,Circle K,Center Store,,,,,,,,
2741251,2024-04-15,AM,Mechelle Corpuz,0.5,10801 Unser Blvd Nw,Albuquerque,NM,87114,7,7,,,,8,4,,505-899-1018,RM - Rocky Mountain,Circle K,Center Store,,,,,,,,
2706247,2024-04-16,PM,Mechelle Corpuz,0.5,5605 4th Street Nw,Albuquerque,NM,87107,6,6,,,,8,,,505-344-1009,RM - Rocky Mountain,Circle K,Center Store,,,,,,,,
2706304,2024-04-16,AM,Mechelle Corpuz,0.5,9200 Eagle Ranch Rd Nw,Albuquerque,NM,87114,9,9,,,,,,,505-897-7478,RM - Rocky Mountain,Circle K,Center Store,,,,,,,,
2708698,2024-04-17,AM,Mechelle Corpuz,0.5,6600 2nd St Nw,Albuquerque,NM,87107,7,7,,,,,,,505-345-2720,RM - Rocky Mountain,Circle K,Center Store,,,,,,,,
2741235,2024-04-17,PM,Mechelle Corpuz,0.5,9508 2nd St Nw,Albuquerque,NM,87114,6,,6,,,,,,505-890-0624,RM - Rocky Mountain,Circle K,Center Store,,,,,,,,
2708937,2024-04-18,AM,Mechelle Corpuz,0.5,4701 Paseo Del Norte,Albuquerque,NM,87113,9,,9,,,,,,505-797-9824,RM - Rocky Mountain,Circle K,Center Store,,,,,,,,
2741251,2024-06-17,AM,Mechelle Corpuz,0.5,10801 Unser Blvd Nw,Albuquerque,NM,87114,7,,7,,,8,4,,505-899-1018,RM - Rocky Mountain,Circle K,Beverage,,,,,,,,
2741120,2024-01-04,AM,Tim McLean,2.5,385 E Bromley Lane,Brighton,CO,80601,11,,74,4/4/3/0,,,,14,,RM - Rocky Mountain,Circle K,Flex Roller,,,RESCHEDULE - PARTS ALREADY AT STORE,,,,,
2709890,2024-01-08,AM,Tim McLean,2,600 South Buckley Road,Aurora,CO,80017,15,,98,"3,3,5,4",,,,18,,RM - Rocky Mountain,Circle K,Flex Roller,,,SHIPMENT MISSING - RESCHEDULE,,,,,
2709851,2024-01-10,AM,Tim McLean,2,1480 Canyon Blvd,Boulder,CO,80302,10,,69,"4,5,1",,,,13,,RM - Rocky Mountain,Circle K,Flex Roller,,,Completed,,,,,
2709894,2024-01-17,AM,Tim McLean,2,1240 East 1st Avenue,Broomfield,CO,80020,11,,75,"2,5,4",,,,12,,RM - Rocky Mountain,Circle K,Flex Roller,,,,,,,,
850,2024-01-23,AM,Tim McLean,3,7006 Hwy 160/491,Cortez,CO,81321,,,,,,,,,,RM - Rocky Mountain,Loves,NEW STORE,,,,,,,,
2709842,2024-01-29,AM,Tim McLean,1.5,4570 Chambers Road,Denver,CO,80239,15,,99,"3,3,5,4",,,,12,,RM - Rocky Mountain,Circle K,Flex Roller,,,,,,,,
2709864,2024-01-30,PM,Tim McLean,1.5,298 South Potomac,Aurora,CO,80012,10,,69,"1,5,4",,,,13,,RM - Rocky Mountain,Circle K,Flex Roller,,,,,,,,
2709098,2024-02-01,AM,Tim McLean,2,225 22nd Street,Greeley,CO,80631,21,,147,4/5/4/3/5,,,,5,,RM - Rocky Mountain,Circle K,Flex Roller,,,,,,,,
517,2024-02-05,AM,Tim McLean,2,748 22 Road,Grand Junction,CO,81505,15,,,,,,,,,RM - Rocky Mountain,Loves,Beverage,,,EMPTY VISI COOLERS,,,,,
826,2024-02-07,AM,Tim McLean,2,100 E Cardinal Way Ste A,Parachute,CO,81635,12,,,,,,,,,RM - Rocky Mountain,Loves,Beverage,,,,,,,,
668,2024-02-09,AM,Tim McLean,1,3800 E State Highway 56,Berthoud,CO,80513,12,,,,,,,,,RM - Rocky Mountain,Loves,Beverage,,,,,,,,
377,2024-02-12,AM,Tim McLean,1,201 East Bison Hwy,Hudson,CO,80642,11,,,,,,,,,RM - Rocky Mountain,Loves,Beverage,,,,,,,,
649,2024-02-13,AM,Tim McLean,2,1015 Hospital Rd,Brush,CO,80723,13,,,,,,,,,RM - Rocky Mountain,Loves,Beverage,,,,,,,,
300,2024-02-15,AM,Tim McLean,1,1191 S. 1st Street,Bennett,CO,80102,12,,,,,,,,,RM - Rocky Mountain,Loves,Beverage,,,,,,,,
2744089,2024-02-19,AM,Tim McLean,1,330 S Kalamath St,Denver,CO,80223,5,5,,,,,,,303-777-0611,RM - Rocky Mountain,Circle K,Center Store,TRUE,Ryan King,,,,,,
2703290,2024-02-20,AM,Tim McLean,1,411 W Florida Ave,Denver,CO,80223,10,10,,,,,,,303-282-6561,RM - Rocky Mountain,Circle K,Center Store,TRUE,Ryan King,,,,,,
2709898,2024-02-21,AM,Tim McLean,1,2200 W Evans,Englewood,CO,80110,6,6,,,,,,,303-922-4949,RM - Rocky Mountain,Circle K,Center Store,TRUE,Ryan King,,,,,,
2740691,2024-02-22,AM,Tim McLean,1,2010 W Evans Ave,Englewood,CO,80110,7,7,,,,,,,303-934-6665,RM - Rocky Mountain,Circle K,Center Store,TRUE,Ryan King,,,,,,
2744079,2024-02-23,AM,Tim McLean,1,2210 S Colorado Blvd,Denver,CO,80222,5,5,,,,,,,303-756-8611,RM - Rocky Mountain,Circle K,Center Store,TRUE,Ryan King,,,,,,
2709900,2024-02-26,AM,Tim McLean,1,1300 W Colfax Ave,Denver,CO,80204,10,10,,,,,,,720-769-0426,RM - Rocky Mountain,Circle K,Center Store,,,,,,,,
2744090,2024-02-27,AM,Tim McLean,1,3490 Colorado Blvd,Denver,CO,80205,5,5,,,,,,,303-333-2371,RM - Rocky Mountain,Circle K,Center Store,,,,,,,,
2744086,2024-02-28,AM,Tim McLean,1,1001 Broadway,Denver,CO,80203,8,5,,,3,,,,303-892-0174,RM - Rocky Mountain,Circle K,Center Store,,,,,,,,
2744093,2024-02-29,AM,Tim McLean,1,300 S Downing St,Denver,CO,80209,7,7,,,,,,,303-698-1834,RM - Rocky Mountain,Circle K,Center Store,,,,,,,,
2744085,2024-03-01,AM,Tim McLean,1,5455 E Colfax Ave,Denver,CO,80220,5,0,,,5,,,,303-388-2307,RM - Rocky Mountain,Circle K,Center Store,,,,,,,,
2744115,2024-03-04,PM,Tim McLean,0.5,599 29 1/2 Rd,Grand Junction,CO,81504,8,8,,,,,,,970-241-6005,RM - Rocky Mountain,Circle K,Center Store,,,,,,,,
2744116,2024-03-04,AM,Tim McLean,0.5,1015 North Ave,Grand Junction,CO,81501,8,,,,8,,,,970-243-8279,RM - Rocky Mountain,Circle K,Center Store,,,,,,,,
2744061,2024-03-05,AM,Tim McLean,1,3202 E Rd,Clifton,CO,81520,7,7,,,,,,,970-434-6427,RM - Rocky Mountain,Circle K,Center Store,,,,,,,,
2744112,2024-03-06,AM,Tim McLean,1,2119 Grand Ave,Glenwood Springs,CO,81601,7,7,,,,,,,970-945-8419,RM - Rocky Mountain,Circle K,Center Store,,,,,,,,
2740682,2024-03-07,AM,Tim McLean,1,108 Harrison Ave,Leadville,CO,80461,11,5,,,6,,,,719-486-2124,RM - Rocky Mountain,Circle K,Center Store,,,,,,,,
2740633,2024-03-08,AM,Tim McLean,0.5,1012 Summit Blvd,Frisco,CO,80443,10,5,,,5,,,,970-668-5801,RM - Rocky Mountain,Circle K,Center Store,,,,,,,,
2744111,2024-03-08,PM,Tim McLean,0.5,1501 Argentine St,Georgetown,CO,80444,11,8,,,3,,,,303-569-2092,RM - Rocky Mountain,Circle K,Center Store,,,,,,,,
2741129,2024-03-11,AM,Tim McLean,1,895 W 136Th Ave,Broomfield,CO,80023,13,13,,,,,,,303-280-3238,RM - Rocky Mountain,Circle K,Center Store,,,,,,,,
2709850,2024-03-12,AM,Tim McLean,0.5,12801 Washington St,Thornton,CO,80233,9,9,,,,,,,303-452-5266,RM - Rocky Mountain,Circle K,Center Store,,,,,,,,
2709859,2024-03-12,PM,Tim McLean,0.5,2265 E 120th Ave,Northglenn,CO,80233,8,8,,,,,,,303-451-5699,RM - Rocky Mountain,Circle K,Center Store,,,,,,,,
2709839,2024-03-13,PM,Tim McLean,0.5,12051 North Huron Street,Westminster,CO,80234,8,8,,,,,,,303-254-5326,RM - Rocky Mountain,Circle K,Center Store,,,,,,,,
2741139,2024-03-13,AM,Tim McLean,0.5,301 E 120Th Ave,Thornton,CO,80233,9,3,,,6,,,,303-457-0414,RM - Rocky Mountain,Circle K,Center Store,,,,,,,,
2709844,2024-03-14,PM,Tim McLean,0.5,4020 E 104th,Thornton,CO,80241,7,7,,,,,,,303-452-2543,RM - Rocky Mountain,Circle K,Center Store,,,,,,,,
2741115,2024-03-14,AM,Tim McLean,0.5,11195 Huron St,Northglenn,CO,80234,7,4,,,3,,,,303-280-9337,RM - Rocky Mountain,Circle K,Center Store,,,,,,,,
2709862,2024-03-15,AM,Tim McLean,0.5,290 W 104th Ave,Northglenn,CO,80234,8,8,,,,,,,303-451-5425,RM - Rocky Mountain,Circle K,Center Store,,,,,,,,
2741185,2024-03-15,PM,Tim McLean,0.5,5390 W 112th Ave,Westminster,CO,80020,9,6,,,3,,,,303-466-1365,RM - Rocky Mountain,Circle K,Center Store,,,,,,,,
2709889,2024-03-18,AM,Tim McLean,1,10363 North Federal Blvd,Westminster,CO,80260,11,11,,,,,,,303-466-3039,RM - Rocky Mountain,Circle K,Center Store,,,,,,,,
2741150,2024-03-19,AM,Tim McLean,0.5,7605 Church Ranch Blvd,Westminster,CO,80021,8,3,,,5,,,,303-469-6742,RM - Rocky Mountain,Circle K,Center Store,,,,,,,,
2741181,2024-03-19,PM,Tim McLean,0.5,9120 W 100Th Ave Bldg C,Westminster,CO,80020,13,5,,,8,,,,303-431-6482,RM - Rocky Mountain,Circle K,Center Store,,,,,,,,
2741177,2024-03-20,AM,Tim McLean,0.5,9989 W 80th Ave,Arvada,CO,80005,10,4,,,6,,,,303-420-5274,RM - Rocky Mountain,Circle K,Center Store,,,,,,,,
2741180,2024-03-20,PM,Tim McLean,0.5,9180 W 88Th Ave,Westminster,CO,80005,12,4,,,8,,,,303-425-5168,RM - Rocky Mountain,Circle K,Center Store,,,,,,,,
2709882,2024-03-21,AM,Tim McLean,0.5,7805 W 92nd Ave,Westminster,CO,80021,8,8,,,,,,,303-420-2875,RM - Rocky Mountain,Circle K,Center Store,,,,,,,,
2741146,2024-03-21,PM,Tim McLean,0.5,9489 Sheridan Blvd,Westminster,CO,80030,8,3,,,5,,,,303-657-8208,RM - Rocky Mountain,Circle K,Center Store,,,,,,,,
2709883,2024-03-22,PM,Tim McLean,0.5,8815 Federal Blvd,Westminster,CO,80260,9,9,,,,,,,303-426-7975,RM - Rocky Mountain,Circle K,Center Store,,,,,,,,
2741116,2024-03-22,AM,Tim McLean,0.5,3540 W 92nd Ave,Westminster,CO,80030,7,3,,,4,,,,303-427-7290,RM - Rocky Mountain,Circle K,Center Store,,,,,,,,
2744096,2024-03-25,AM,Tim McLean,1,1801 Main Ave,Durango,CO,81301,8,8,,,,,,,970-247-2911,RM - Rocky Mountain,Circle K,Center Store,,,,,,,,
2744062,2024-03-26,AM,Tim McLean,1,"8950 S Interstate 25, Exit 74",Colorado City,CO,81004,13,13,,,,,,,719-676-3367,RM - Rocky Mountain,Circle K,Center Store,,,,,,,,
2741171,2024-03-27,AM,Tim McLean,0.5,430 W Abriendo Ave,Pueblo,CO,81004,11,8,,,3,,,,719-544-4321,RM - Rocky Mountain,Circle K,Center Store,,,,,,,,
2744138,2024-03-27,PM,Tim McLean,0.5,601 W Us Hwy 50,Pueblo,CO,81008,5,5,,,,,,,719-544-9749,RM - Rocky Mountain,Circle K,Center Store,,,,,,,,
2709838,2024-03-28,PM,Tim McLean,0.5,6560 South Academy Blvd,Colorado Springs,CO,80906,9,9,,,,,,,719-538-0681,RM - Rocky Mountain,Circle K,Center Store,,,,,,,,
2740678,2024-03-28,AM,Tim McLean,0.5,1801 Main St,Security,CO,80911,8,3,,,5,,,,719-390-3344,RM - Rocky Mountain,Circle K,Center Store,,,,,,,,
2709887,2024-03-29,AM,Tim McLean,0.5,2890 South Circle Drive,Colorado Springs,CO,80906,12,12,,,,,,,719-576-7604,RM - Rocky Mountain,Circle K,Center Store,,,,,,,,
2740622,2024-03-29,PM,Tim McLean,0.5,6480 S US Hwy 85-87,Fountain,CO,80817,3,3,,,,,,,719-390-6078,RM - Rocky Mountain,Circle K,Center Store,,,,,,,,
2740623,2024-04-01,AM,Tim McLean,0.5,9202 Huron St,Thornton,CO,80260,7,3,,,4,,,,303-426-0117,RM - Rocky Mountain,Circle K,Center Store,,,,,,,,
2744144,2024-04-01,PM,Tim McLean,0.5,8801 N Washington St,Thornton,CO,80229,8,3,,,5,,,,303-288-5419,RM - Rocky Mountain,Circle K,Center Store,,,,,,,,
2740648,2024-04-02,AM,Tim McLean,0.5,8290 N Washington St,Thornton,CO,80229,5,5,,,,6,,,303-289-1629,RM - Rocky Mountain,Circle K,Center Store,,,,,,,,
2744101,2024-04-02,PM,Tim McLean,0.5,801 W 84th Ave,Federal Heights,CO,80221,9,6,,,3,,,,303-427-4963,RM - Rocky Mountain,Circle K,Center Store,,,,,,,,
2741183,2024-04-03,PM,Tim McLean,0.5,7584 Sheridan Blvd,Westminster,CO,80003,10,4,,,6,,,,303-426-1150,RM - Rocky Mountain,Circle K,Center Store,,,,,,,,
2744045,2024-04-03,AM,Tim McLean,0.5,6802 Wadsworth Blvd,Arvada,CO,80003,5,5,,,,,,,303-423-7755,RM - Rocky Mountain,Circle K,Center Store,,,,,,,,
2744095,2024-04-04,PM,Tim McLean,0.5,5810 Broadway,Denver,CO,80216,8,8,,,,,,,303-298-7352,RM - Rocky Mountain,Circle K,Center Store,,,,,,,,
2744147,2024-04-04,AM,Tim McLean,0.5,7285 Pecos St,Westminster,CO,80221,8,5,,,3,,,,303-429-7515,RM - Rocky Mountain,Circle K,Center Store,,,,,,,,
2740669,2024-04-05,PM,Tim McLean,0.5,5600 E 64th Ave,Commerce City,CO,80022,6,6,,,,,,,303-288-0884,RM - Rocky Mountain,Circle K,Center Store,,,,,,,,
2741165,2024-04-05,AM,Tim McLean,0.5,4600 E 74th Ave,Commerce City,CO,80022,9,6,,,3,,,,303-286-9299,RM - Rocky Mountain,Circle K,Center Store,,,,,,,,
2709865,2024-04-08,AM,Tim McLean,0.5,3040 N Broadway,Boulder,CO,80304,6,6,,,,,,,303-449-0406,RM - Rocky Mountain,Circle K,Center Store,,,,,,,,
2709866,2024-04-08,PM,Tim McLean,0.5,3185 28th St,Boulder,CO,80301,7,2,,,5,,,,720-565-3305,RM - Rocky Mountain,Circle K,Center Store,,,,,,,,
2741110,2024-04-09,AM,Tim McLean,0.5,2995 30Th St,Boulder,CO,80301,10,5,,,5,,,,303-447-8418,RM - Rocky Mountain,Circle K,Center Store,,,,,,,,
2744057,2024-04-09,PM,Tim McLean,0.5,1884 Folsom St,Boulder,CO,80302,5,5,,,,,,,303-443-6455,RM - Rocky Mountain,Circle K,Center Store,,,,,,,,
2744058,2024-04-10,PM,Tim McLean,0.5,1704 Arapahoe Ave,Boulder,CO,80303,4,4,,,,,,,303-449-8798,RM - Rocky Mountain,Circle K,Center Store,,,,,,,,
2709858,2024-04-11,PM,Tim McLean,0.5,225 W South Boulder Road,Lafayette,CO,80026,4,4,,,,,,,303-665-3222,RM - Rocky Mountain,Circle K,Center Store,,,,,,,,
2709861,2024-04-11,AM,Tim McLean,0.5,2877 Baseline Rd,Boulder,CO,80303,6,6,,,,,,,303-444-7510,RM - Rocky Mountain,Circle K,Center Store,,,,,,,,
2709873,2024-04-12,AM,Tim McLean,0.5,425 W Highway 287,Broomfield,CO,80020,10,10,,,,,,,303-466-0503,RM - Rocky Mountain,Circle K,Center Store,,,,,,,,
2709855,2024-04-15,AM,Tim McLean,0.5,16070 E 6th,Aurora,CO,80011,7,7,,,,,,,303-340-3064,RM - Rocky Mountain,Circle K,Center Store,,,,,,,,
2741140,2024-04-16,AM,Tim McLean,0.5,291 S Sable Blvd,Aurora,CO,80012,7,3,,,4,,,,303-364-5541,RM - Rocky Mountain,Circle K,Center Store,,,,,,,,
2741716,2024-04-17,AM,Tim McLean,1,1110 S Buckley Rd,Aurora,CO,80017,7,7,,,,,,,303-368-3632,RM - Rocky Mountain,Circle K,Center Store,,,,,,,,
2744074,2024-06-17,AM,Tim McLean,0.5,5601 Quebec St,Commerce City,CO,80022,10,10,,,,,,,303-288-2060,RM - Rocky Mountain,Circle K,Beverage,,,,,,,,
2744051,2024-06-18,PM,Tim McLean,0.5,3790 Chambers Rd,Aurora,CO,80011,10,5,,,5,,,,303-344-3810,RM - Rocky Mountain,Circle K,Beverage,,,,,,,,
2744054,2024-06-18,AM,Tim McLean,0.5,1495 N Manila Rd,Bennett,CO,80102,9,9,,,,,,,303-644-3488,RM - Rocky Mountain,Circle K,Beverage,,,,,,,,
2744048,2024-06-19,AM,Tim McLean,0.5,12796 E Colfax Ave,Aurora,CO,80011,5,0,,,5,,,,303-366-3067,RM - Rocky Mountain,Circle K,Beverage,,,,,,,,
,,,,,,,,,,,,,,,,,,,,,,,,,,,,
,,,,,,,,,,,,,,,,,,,,,,,,,,,,
,,,,,,,,,,,,,,,,,,,,,,,,,,,,
,,,,,,,,,,,,,,,,,,,,,,,,,,,,
,,,,,,,,,,,,,,,,,,,,,,,,,,,,
,,,,,,,,,,,,,,,,,,,,,,,,,,,,
,,,,,,,,,,,,,,,,,,,,,,,,,,,,
,,,,,,,,,,,,,,,,,,,,,,,,,,,,
,,,,,,,,,,,,,,,,,,,,,,,,,,,,
,,,,,,,,,,,,,,,,,,,,,,,,,,,,
,,,,,,,,,,,,,,,,,,,,,,,,,,,,
,,,,,,,,,,,,,,,,,,,,,,,,,,,,
,,,,,,,,,,,,,,,,,,,,,,,,,,,,
,,,,,,,,,,,,,,,,,,,,,,,,,,,,
,,,,,,,,,,,,,,,,,,,,,,,,,,,,
,,,,,,,,,,,,,,,,,,,,,,,,,,,,
,,,,,,,,,,,,,,,,,,,,,,,,,,,,
,,,,,,,,,,,,,,,,,,,,,,,,,,,,
,,,,,,,,,,,,,,,,,,,,,,,,,,,,
,,,,,,,,,,,,,,,,,,,,,,,,,,,,
,,,,,,,,,,,,,,,,,,,,,,,,,,,,
,,,,,,,,,,,,,,,,,,,,,,,,,,,,
,,,,,,,,,,,,,,,,,,,,,,,,,,,,
,,,,,,,,,,,,,,,,,,,,,,,,,,,,
,,,,,,,,,,,,,,,,,,,,,,,,,,,,
,,,,,,,,,,,,,,,,,,,,,,,,,,,,
,,,,,,,,,,,,,,,,,,,,,,,,,,,,
,,,,,,,,,,,,,,,,,,,,,,,,,,,,
,,,,,,,,,,,,,,,,,,,,,,,,,,,,
,,,,,,,,,,,,,,,,,,,,,,,,,,,,
,,,,,,,,,,,,,,,,,,,,,,,,,,,,
,,,,,,,,,,,,,,,,,,,,,,,,,,,,
,,,,,,,,,,,,,,,,,,,,,,,,,,,,
,,,,,,,,,,,,,,,,,,,,,,,,,,,,
,,,,,,,,,,,,,,,,,,,,,,,,,,,,
,,,,,,,,,,,,,,,,,,,,,,,,,,,,
,,,,,,,,,,,,,,,,,,,,,,,,,,,,
,,,,,,,,,,,,,,,,,,,,,,,,,,,,
,,,,,,,,,,,,,,,,,,,,,,,,,,,,
,,,,,,,,,,,,,,,,,,,,,,,,,,,,
,,,,,,,,,,,,,,,,,,,,,,,,,,,,
,,,,,,,,,,,,,,,,,,,,,,,,,,,,
,,,,,,,,,,,,,,,,,,,,,,,,,,,,
,,,,,,,,,,,,,,,,,,,,,,,,,,,,
,,,,,,,,,,,,,,,,,,,,,,,,,,,,
,,,,,,,,,,,,,,,,,,,,,,,,,,,,
,,,,,,,,,,,,,,,,,,,,,,,,,,,,
,,,,,,,,,,,,,,,,,,,,,,,,,,,,
,,,,,,,,,,,,,,,,,,,,,,,,,,,,
,,,,,,,,,,,,,,,,,,,,,,,,,,,,
,,,,,,,,,,,,,,,,,,,,,,,,,,,,
,,,,,,,,,,,,,,,,,,,,,,,,,,,,
,,,,,,,,,,,,,,,,,,,,,,,,,,,,
,,,,,,,,,,,,,,,,,,,,,,,,,,,,
,,,,,,,,,,,,,,,,,,,,,,,,,,,,
,,,,,,,,,,,,,,,,,,,,,,,,,,,,
,,,,,,,,,,,,,,,,,,,,,,,,,,,,
,,,,,,,,,,,,,,,,,,,,,,,,,,,,
,,,,,,,,,,,,,,,,,,,,,,,,,,,,
,,,,,,,,,,,,,,,,,,,,,,,,,,,,
,,,,,,,,,,,,,,,,,,,,,,,,,,,,
,,,,,,,,,,,,,,,,,,,,,,,,,,,,
,,,,,,,,,,,,,,,,,,,,,,,,,,,,
,,,,,,,,,,,,,,,,,,,,,,,,,,,,
,,,,,,,,,,,,,,,,,,,,,,,,,,,,
,,,,,,,,,,,,,,,,,,,,,,,,,,,,
,,,,,,,,,,,,,,,,,,,,,,,,,,,,
,,,,,,,,,,,,,,,,,,,,,,,,,,,,
,,,,,,,,,,,,,,,,,,,,,,,,,,,,
,,,,,,,,,,,,,,,,,,,,,,,,,,,,
,,,,,,,,,,,,,,,,,,,,,,,,,,,,
,,,,,,,,,,,,,,,,,,,,,,,,,,,,
,,,,,,,,,,,,,,,,,,,,,,,,,,,,
,,,,,,,,,,,,,,,,,,,,,,,,,,,,
,,,,,,,,,,,,,,,,,,,,,,,,,,,,
,,,,,,,,,,,,,,,,,,,,,,,,,,,,
,,,,,,,,,,,,,,,,,,,,,,,,,,,,
,,,,,,,,,,,,,,,,,,,,,,,,,,,,
,,,,,,,,,,,,,,,,,,,,,,,,,,,,
,,,,,,,,,,,,,,,,,,,,,,,,,,,,
,,,,,,,,,,,,,,,,,,,,,,,,,,,,
,,,,,,,,,,,,,,,,,,,,,,,,,,,,
,,,,,,,,,,,,,,,,,,,,,,,,,,,,
,,,,,,,,,,,,,,,,,,,,,,,,,,,,
,,,,,,,,,,,,,,,,,,,,,,,,,,,,
,,,,,,,,,,,,,,,,,,,,,,,,,,,,
,,,,,,,,,,,,,,,,,,,,,,,,,,,,
,,,,,,,,,,,,,,,,,,,,,,,,,,,,
,,,,,,,,,,,,,,,,,,,,,,,,,,,,
,,,,,,,,,,,,,,,,,,,,,,,,,,,,
,,,,,,,,,,,,,,,,,,,,,,,,,,,,
,,,,,,,,,,,,,,,,,,,,,,,,,,,,
,,,,,,,,,,,,,,,,,,,,,,,,,,,,
,,,,,,,,,,,,,,,,,,,,,,,,,,,,Completed